{"type":"FeatureCollection","name":"conduite","features":[{"type":"Feature","properties":{"id":null,"Nom":"Tronçon total 1","Commentaire":null,"Longueur_m":5069.5},"geometry":{"type":"LineString","coordinates":[[30.2661658,1.5605542],[30.2661685,1.5601604],[30.266938,1.5603508],[30.2674404,1.5604461],[30.2679684,1.5605522],[30.26849,1.560667],[30.2688705,1.5607729],[30.2693087,1.5608617],[30.2695974,1.5609051],[30.2699202,1.5609723],[30.2704097,1.5610956],[30.2705155,1.5611237],[30.2705981,1.5608817],[30.2706625,1.5606935],[30.2707495,1.560402],[30.2708493,1.5600933],[30.2710703,1.55956],[30.2712634,1.5590502],[30.2715014,1.5585556],[30.2716986,1.5581857],[30.271958,1.5576136],[30.2723441,1.5566953],[30.2726444,1.5559748],[30.2727624,1.5556779],[30.2732389,1.5556868],[30.2734587,1.5556912],[30.2738888,1.5556941],[30.274976,1.5549876],[30.2752369,1.5549535],[30.2754465,1.5549107],[30.2756518,1.5548636],[30.275823,1.5547993],[30.2759898,1.5547737],[30.2761268,1.5547007],[30.2762509,1.5546105],[30.2762896,1.5544599],[30.2763111,1.5543416],[30.2763499,1.5540683],[30.2764272,1.5538188],[30.2764766,1.5536854],[30.2765368,1.5534424],[30.2765692,1.55321],[30.2766336,1.5529475],[30.2767063,1.5526437],[30.2769379,1.5524444],[30.2770707,1.5522896],[30.2773833,1.5520017],[30.2774266,1.5515627],[30.2770952,1.5510279],[30.2769846,1.5505973],[30.2768825,1.5501754],[30.276866,1.5497106],[30.2769351,1.5491426],[30.2768588,1.5486174],[30.2765866,1.5474808],[30.2765099,1.5472742],[30.2764504,1.5469513],[30.276404,1.5464692],[30.2764514,1.5461465],[30.276563,1.5458281],[30.2767598,1.5457574],[30.2768434,1.5456456],[30.2768766,1.5455574],[30.27705,1.5454446],[30.2774084,1.5452331],[30.2774214,1.5451073],[30.2775328,1.5449148],[30.2777192,1.5446676],[30.2781323,1.5443044],[30.2783764,1.5441111],[30.2786589,1.5438704],[30.2788767,1.5437109],[30.2792454,1.5433934],[30.2800073,1.5428564],[30.2804139,1.5426547],[30.2807134,1.5425001],[30.2811072,1.5422338],[30.2816637,1.5418041],[30.2819721,1.5414946],[30.2827236,1.5407403],[30.2832544,1.5403106],[30.2836052,1.5402077],[30.2842555,1.5400106],[30.2844609,1.5399592],[30.2848288,1.5398521],[30.2851582,1.539732],[30.2853233,1.5396583],[30.2854923,1.5395703],[30.2856207,1.5394801],[30.2857651,1.5394781],[30.2858453,1.5394524],[30.285918,1.5394439],[30.2859928,1.5394332],[30.2860677,1.5394182],[30.2861618,1.5394033],[30.2862623,1.5394185],[30.2864291,1.5394316],[30.2866386,1.5394491],[30.2867872,1.53946],[30.286923,1.5394807],[30.2872212,1.5395488],[30.2874381,1.5396029],[30.2877245,1.5397152],[30.2879639,1.5398188],[30.2882161,1.5399052],[30.288417,1.5400302],[30.2887375,1.5401856],[30.2889722,1.5403437],[30.289263,1.5404087],[30.2895367,1.5404047],[30.2899088,1.5403837],[30.2902338,1.5403539],[30.2905204,1.5403113],[30.2907753,1.5402119],[30.2910299,1.5400702],[30.2914238,1.5397888],[30.2918517,1.5395268],[30.2922606,1.539211],[30.2926201,1.5389489],[30.2929198,1.5387427],[30.2932751,1.5384892],[30.2937803,1.537997],[30.2941442,1.5377091],[30.2946255,1.5375936],[30.2950188,1.5374549]]}}]}