{"type": "FeatureCollection", "name": "Nyamukau site 1", "features": [{"type": "Feature", "properties": {"OBJECTID": 1282, "fid_1": 10763.0, "ID": 10762, "ELEV": 1366.0, "Shape_Leng": 9764.69294164, "area": 478206.38, "Name": "Nyamukau site 1"}, "geometry": {"type": "Polygon", "coordinates": [[[30.29245930747974, 1.53180506578341], [30.29670516111498, 1.5327723272471176], [30.296710428642182, 1.5327283532042044], [30.296717697288244, 1.532693745726542], [30.296725328319727, 1.5326673290575459], [30.296732744136264, 1.5326456801031068], [30.29677504160378, 1.5325372910380297], [30.296808109666603, 1.532440962935803], [30.296815104383196, 1.5324235590858073], [30.29682305762919, 1.5324065712577795], [30.296832033075514, 1.5323900682147233], [30.296842040529768, 1.5323741059992748], [30.296862002081177, 1.532347490812588], [30.29687675899947, 1.5323308098532304], [30.296890130010805, 1.5323172395195328], [30.296921026923776, 1.5322894643012759], [30.296944953913588, 1.5322707842295695], [30.296970160167717, 1.532253830066406], [30.29699650640877, 1.5322386730281652], [30.297023865849603, 1.5322254494144651], [30.29704160751999, 1.5322182024870457], [30.297064121801466, 1.532210397705577], [30.2971582174141, 1.532184006821268], [30.29718453838898, 1.5321753917237146], [30.297210694515115, 1.5321657570276659], [30.297239804286203, 1.532153846918354], [30.297279347087706, 1.532136051524981], [30.297323138432777, 1.5321152657170316], [30.297369703260678, 1.5320919385730556], [30.297530936257697, 1.5320060041159655], [30.297564445908463, 1.5319871464124304], [30.29758726225595, 1.5319733431518514], [30.297615229514697, 1.5319544892516745], [30.297635175957208, 1.531938483610031], [30.29765519938407, 1.531918374302711], [30.297668163522086, 1.5319020037298123], [30.297681812803198, 1.5318806373948068], [30.297692668515147, 1.5318606438674855], [30.297707677587294, 1.5318297776145753], [30.29772450010444, 1.5317914245897453], [30.297740492983397, 1.53175012259684], [30.297759586099893, 1.5316963388330365], [30.297777062666444, 1.531644120957925], [30.297789325848758, 1.5316045249554417], [30.297800021950465, 1.5315657159045437], [30.29780851353001, 1.5315297390036788], [30.29781571983713, 1.5314932444502274], [30.297821381335666, 1.531458395405081], [30.2978274721241, 1.5314134741130798], [30.297832851810607, 1.5313663179379855], [30.297845638660217, 1.5312234209026943], [30.29785046515189, 1.5311899001581861], [30.297855409703732, 1.5311653561503333], [30.297862067013448, 1.53114057754307], [30.297867559808047, 1.531124257120607], [30.297873506196872, 1.5311092819994971], [30.29788176978565, 1.5310918462956793], [30.297892953504196, 1.5310723637712897], [30.297903679132226, 1.5310565569721624], [30.297910457509257, 1.5310476712247651], [30.297925088049826, 1.5310307822130476], [30.297945904214, 1.5310108049274613], [30.29796332934843, 1.5309967399512363], [30.2979790022584, 1.5309857399552058], [30.298002277768653, 1.5309716914389284], [30.298022441577793, 1.5309613622738618], [30.29804780435089, 1.5309506285155363], [30.298074189352334, 1.5309417920450086], [30.298099082504226, 1.5309353376777355], [30.29814123191654, 1.5309277620075712], [30.298166496848356, 1.5309248822987809], [30.298193061010128, 1.5309228474030903], [30.298356385498995, 1.5309156324230213], [30.29840275715243, 1.5309145968581894], [30.298438286722913, 1.530914807314371], [30.29848375000195, 1.5309163299134598], [30.29852806149796, 1.5309190186490738], [30.298563302656376, 1.5309222254534467], [30.298599258724593, 1.5309267787947511], [30.29863377288779, 1.530932554839208], [30.29866031854047, 1.5309381355130942], [30.29868748852922, 1.5309449641045327], [30.298724363283686, 1.5309559385963085], [30.298860881950958, 1.5310025048585743], [30.298894825163014, 1.5310160385657665], [30.298923358537227, 1.5310291352424197], [30.298955122045086, 1.5310457650217326], [30.29898532041622, 1.5310644993743028], [30.29900984647361, 1.5310830060253717], [30.29903256742259, 1.5311037832288954], [30.299048256927968, 1.531120407078354], [30.299068059870706, 1.5311444023232732], [30.29908449257503, 1.5311670304918263], [30.299097376786435, 1.5311865020029334], [30.299109516667844, 1.5312066078814155], [30.299123796884043, 1.5312335431351913], [30.29913472074253, 1.5312573490865249], [30.299147742482727, 1.531289615564289], [30.29916725097133, 1.5313443674612242], [30.299184837931016, 1.5314018506584204], [30.29919344071457, 1.5314362253205447], [30.2992151417855, 1.5315335115239999], [30.299238198534237, 1.5316252885991184], [30.299247835617624, 1.531660524009154], [30.29925935464574, 1.5316981024287026], [30.299270699399635, 1.531731431361481], [30.299278963955096, 1.5317533668702563], [30.29928940002362, 1.531777314092644], [30.299301812456207, 1.5317999172885988], [30.299312069319374, 1.5318149509464374], [30.29932148337991, 1.5318267907109344], [30.299335999073943, 1.5318428094005156], [30.299351788295027, 1.5318579702738548], [30.29936620371926, 1.5318701625086202], [30.299384080236877, 1.531883597225087], [30.299398916041454, 1.5318935433589098], [30.29942133469557, 1.5319068970834118], [30.29944465088717, 1.5319191792377418], [30.29946862543085, 1.5319306452696049], [30.29950201217105, 1.5319454073458445], [30.29955782405951, 1.5319683439665182], [30.29965838567038, 1.5320069165180812], [30.29975511137739, 1.5320502657595785], [30.299792639113566, 1.5320661808111524], [30.2998323757369, 1.5320815157699377], [30.299854867226717, 1.5320890659322772], [30.299889240616835, 1.532098298527091], [30.29992437320969, 1.53210506223183], [30.299958128648175, 1.532110103515157], [30.300053576281954, 1.532122127466512], [30.30010629966992, 1.532129569588733], [30.300159772675855, 1.5321386104301615], [30.300212800966023, 1.5321492548014806], [30.30026605956718, 1.5321624289640279], [30.300311583977614, 1.5321761581349453], [30.30035531342385, 1.53219194369221], [30.300390485901755, 1.5322070234350236], [30.300418251865125, 1.5322205782495322], [30.300448410406194, 1.5322367378970743], [30.30056620588021, 1.5323043632841837], [30.30068291446808, 1.5323744038345708], [30.300776589587368, 1.5324329786428044], [30.300854194307703, 1.5324829143270315], [30.30090892510654, 1.532519460455448], [30.300972510468245, 1.5325636018049362], [30.30108594684468, 1.532645095540822], [30.301139137616346, 1.5326823464293746], [30.30118136435454, 1.5327106420408503], [30.30127340807424, 1.5327704899505101], [30.301297184370718, 1.532783977357337], [30.301316694404427, 1.532792370525224], [30.301329856909238, 1.5327954463062945], [30.30133597720414, 1.5327957803138184], [30.301345602053548, 1.5327942101195997], [30.30135068302078, 1.5327919572762547], [30.301358258810033, 1.5327859607911203], [30.30136398421176, 1.5327782322451708], [30.30136803128701, 1.5327697704631837], [30.301371255458136, 1.5327594324258431], [30.30137329856193, 1.532748543430415], [30.301374446658503, 1.532735988654075], [30.301374650223973, 1.5327233088701484], [30.301372574678375, 1.5326955820306802], [30.301370249981474, 1.5326803659224275], [30.30136546504065, 1.5326577786945015], [30.30135618177901, 1.532626095278252], [30.301343992368366, 1.5325946088003493], [30.30133181585767, 1.5325693118915191], [30.30131501768529, 1.532540189111407], [30.301294626540642, 1.5325097179477314], [30.301272635980478, 1.532480037314844], [30.301251979874284, 1.5324539108838253], [30.30123167603509, 1.5324297324086151], [30.301207545763177, 1.5324027584043933], [30.301144444775446, 1.532335376810742], [30.301126376271345, 1.5323138806923662], [30.301116411263056, 1.5323002553763656], [30.301103564194868, 1.532278350173166], [30.301097728693293, 1.5322642926975951], [30.30109522743657, 1.5322559690112967], [30.30109345540894, 1.5322475974494438], [30.301092284959203, 1.5322357021582926], [30.301092393373754, 1.5322272923146716], [30.301094165085857, 1.5322129733745653], [30.301097563165435, 1.532198570644447], [30.30110308483701, 1.5321814260224629], [30.301117967458552, 1.5321454110317325], [30.301125364982102, 1.5321304584925015], [30.301133807583696, 1.532115652776947], [30.30114912217861, 1.532092510863604], [30.30117257816552, 1.5320613208396392], [30.301195870925827, 1.5320335493651427], [30.301215440928164, 1.5320126965368073], [30.3012630323836, 1.53196560912187], [30.30128068364789, 1.5319459738740833], [30.301294273398586, 1.5319276908564823], [30.301303462789672, 1.5319117193862322], [30.30130723930542, 1.5319034624022752], [30.30131226106054, 1.531888970452109], [30.301316289937862, 1.5318677834169931], [30.301317439224185, 1.5318406444701884], [30.301315811956826, 1.5317912425692743], [30.30131601283252, 1.5317663589990478], [30.301317566397927, 1.5317448100493312], [30.301321605350587, 1.5317170078239284], [30.301329238562502, 1.531681635206689], [30.30133990550017, 1.531641709898459], [30.301348070812814, 1.5316167035795951], [30.30135812233585, 1.5315920719829363], [30.301366438478244, 1.531574981504869], [30.301375773422738, 1.5315582248857604], [30.301394402153196, 1.531529613351366], [30.301413075724625, 1.53150463481209], [30.30147535922746, 1.5314281048389038], [30.30149682308049, 1.5314000770790799], [30.301519471892416, 1.5313673379394448], [30.30155896460377, 1.5313042453386814], [30.30157368458789, 1.531281916898483], [30.301592608578968, 1.5312555939374715], [30.301622404589665, 1.5312163254620186], [30.301635385680715, 1.5311971704747023], [30.301646971215355, 1.5311752067749367], [30.301652786060778, 1.5311584221896302], [30.301654639452774, 1.5311498609216627], [30.301655924565843, 1.5311375918886327], [30.30165562753897, 1.5311252259602062], [30.301654469300328, 1.531116478324646], [30.301650786395626, 1.5311016011957952], [30.301648389238434, 1.5310947588318433], [30.30164145345267, 1.531079448315366], [30.30163145725771, 1.5310627458121164], [30.30161556550524, 1.5310419320613895], [30.301593244521634, 1.5310179381188258], [30.301570887954117, 1.5309965468349562], [30.301548879041906, 1.530977202909771], [30.30152169924024, 1.5309559103456705], [30.30150265582894, 1.530942759732692], [30.30147580187781, 1.5309265880390959], [30.301447789472356, 1.5309126063897909], [30.301426367966954, 1.5309039333891503], [30.30140295400269, 1.5308965492741162], [30.301386072485624, 1.530892387052541], [30.301360815071945, 1.530887773202691], [30.301335197412573, 1.5308847159991799], [30.30130932908597, 1.5308831966027618], [30.301291662992682, 1.5308831272208785], [30.30126558184841, 1.5308844741419143], [30.301238500018634, 1.5308875151657968], [30.30120994345864, 1.5308921746831479], [30.30117555835733, 1.530899450300625], [30.30115055995586, 1.5309060094188294], [30.301125498831226, 1.53091389511212], [30.301091533026074, 1.5309269649819], [30.3010550555546, 1.530944328836427], [30.30102510551527, 1.5309610267908151], [30.300939944026887, 1.5310123809474334], [30.300912388939437, 1.531027635987425], [30.300887595166834, 1.5310400270362878], [30.300862389236666, 1.5310509670979497], [30.30083576283808, 1.5310603500632274], [30.300810529034294, 1.5310670146085663], [30.300785893244818, 1.531071565216529], [30.300769330773676, 1.5310736598184826], [30.300742373316506, 1.531075630085063], [30.30071526042101, 1.5310762346396631], [30.30068802206234, 1.5310759181485356], [30.300592260368944, 1.5310715818127274], [30.30056528033951, 1.5310693488668332], [30.30053998337248, 1.531066217050099], [30.300515620975787, 1.531061841097985], [30.300499654930118, 1.5310580722433407], [30.300483966426977, 1.531053535582324], [30.30046770827254, 1.5310478242725867], [30.3004509947445, 1.5310407522936373], [30.300434793496233, 1.531032623617098], [30.300407585681242, 1.5310158044133402], [30.300395621940556, 1.5310070467013546], [30.300379678329747, 1.530993965991013], [30.300362737679734, 1.530978231611896], [30.300346750233327, 1.5309614320573606], [30.300324715933847, 1.5309344182745395], [30.30031328332331, 1.5309181540727734], [30.30030263358867, 1.5309013097747464], [30.300286032090103, 1.5308714597925388], [30.300254980518798, 1.530809734620318], [30.300208188093176, 1.5307192983406372], [30.30018913047645, 1.5306759084967947], [30.300169452920507, 1.5306234517961028], [30.30015447498243, 1.5305771038436962], [30.300140739700982, 1.5305244269417715], [30.300127817669598, 1.5304605314463444], [30.300123369692976, 1.530432732948252], [30.30011982606168, 1.530404878662525], [30.300116859526536, 1.5303693796770539], [30.300115683898674, 1.5303329105639376], [30.30011612145098, 1.5302975641023775], [30.300119191351424, 1.5302153000789454], [30.300119263656722, 1.530188374877132], [30.300117494331673, 1.530155590362657], [30.300113201499855, 1.5301236467204264], [30.300105903340956, 1.530092941878474], [30.30009979586223, 1.5300751987265389], [30.300092372891474, 1.530058122657038], [30.300083665809755, 1.5300417525695584], [30.30007372845574, 1.5300261210660924], [30.300067350260605, 1.5300173270639894], [30.300053412859775, 1.5300005798260257], [30.300032350689904, 1.5299796203805203], [30.300017224831294, 1.5299667955687466], [30.29999595943566, 1.529951084644474], [30.29997036375047, 1.5299348025076331], [30.299945776720357, 1.529921221950206], [30.299923498644716, 1.5299103346788916], [30.29989198583589, 1.5298964227195277], [30.29983421308503, 1.5298724878178644], [30.299813258134698, 1.5298627291565894], [30.299793471303104, 1.5298516679148364], [30.299775856701498, 1.5298391770375195], [30.299757595337166, 1.5298225481335004], [30.299742678628427, 1.5298062036196893], [30.2996621731418, 1.529705584101257], [30.299609813053713, 1.5296453890822361], [30.299535847472303, 1.5295635588690442], [30.299516101729843, 1.5295433457639291], [30.299493604476982, 1.5295224721723362], [30.299467816025846, 1.5295016531526417], [30.299430645861253, 1.529476288486523], [30.299383710022806, 1.5294480873392495], [30.299283780818904, 1.5293907275689167], [30.299251487273846, 1.5293706802166596], [30.299227507833088, 1.5293545230461367], [30.299201459666957, 1.529335302373449], [30.299173270934357, 1.5293130199152014], [30.299074235291375, 1.5292305054909348], [30.299038012434906, 1.5292037738109823], [30.299018079574193, 1.5291910161227538], [30.29898917688688, 1.5291752413157436], [30.298964491356887, 1.529164330221018], [30.29893099465415, 1.529152788014567], [30.298906515569776, 1.529146258389107], [30.298872556219916, 1.5291391709084505], [30.298770765016066, 1.5291231455999594], [30.298721238328483, 1.5291137556114702], [30.298687133651633, 1.529105119883239], [30.298672296870265, 1.5291002680201478], [30.29865791817643, 1.5290946079133039], [30.29864806753527, 1.5290900678235329], [30.298629182293386, 1.5290797370339286], [30.29861140880443, 1.5290679364064845], [30.298597163514806, 1.5290568514728093], [30.298581698111, 1.5290426941726487], [30.298569678745146, 1.529029607621795], [30.298558850386783, 1.5290155836212311], [30.298549193144456, 1.5290007305914513], [30.2985374842218, 1.5289785214405038], [30.29852795793147, 1.5289551781830464], [30.29852064450637, 1.5289309394378194], [30.298516458790086, 1.5289102770374934], [30.298514699434488, 1.5288953599108668], [30.298513946623086, 1.5288726269325745], [30.298514927893883, 1.5288541472224375], [30.29851842345879, 1.5288278291704251], [30.298522135806312, 1.5288091134359787], [30.298528329350603, 1.5287838922957855], [30.298540776262303, 1.5287430547640235], [30.29855748559492, 1.5286996072823185], [30.29858805164311, 1.528632577760843], [30.298605001452493, 1.5285907093687636], [30.298625362443826, 1.5285311090015115], [30.298642680295124, 1.5284721102661547], [30.298667877203528, 1.5283807070863218], [30.298674461540394, 1.5283539067428547], [30.298681782061614, 1.5283193390038634], [30.298687446351032, 1.5282864798980174], [30.29869207304703, 1.528253235399322], [30.298695587051736, 1.5282200572698585], [30.29869720288942, 1.528191043762889], [30.29869676566346, 1.5281701402988082], [30.298694794973922, 1.5281525876727484], [30.298691079158264, 1.528135303047517], [30.29868462778356, 1.5281153752091408], [30.298676331600674, 1.5280957197641145], [30.298666599290776, 1.5280762595105297], [30.29860263072901, 1.5279666745600828], [30.298591965737632, 1.5279462335012985], [30.29858038269581, 1.527921009728814], [30.298570390741435, 1.5278951851939362], [30.298559845258584, 1.5278610349439299], [30.29855212038572, 1.5278261417977246], [30.298547421503663, 1.5277921489674238], [30.298545282775713, 1.5277488240116301], [30.29854611424004, 1.5276411222213886], [30.29854749291258, 1.527596370235354], [30.298550337932042, 1.5275638844099275], [30.298554824069722, 1.527533157482014], [30.298581860771247, 1.527377169070997], [30.29859188564732, 1.5273342616624286], [30.29860465503722, 1.5272904232861222], [30.298620219281982, 1.5272448921743607], [30.29865509840476, 1.5271533150576186], [30.298694052815236, 1.5270306489956533], [30.298705194393523, 1.5269995455007577], [30.298718964962216, 1.5269658200417318], [30.298732517098596, 1.5269373024108346], [30.29874187723597, 1.526919720744174], [30.298753586180126, 1.5268995266998218], [30.29877041100886, 1.5268728233474762], [30.29878637647224, 1.5268497066528515], [30.298798304498423, 1.5268338461941844], [30.298810838970347, 1.5268184609523963], [30.29882639309704, 1.526801141063126], [30.29884038793785, 1.5267870002752049], [30.29886371111778, 1.5267656352468504], [30.298893408700035, 1.5267410050276817], [30.298921275175292, 1.5267193384812658], [30.29894509328271, 1.5267021772511902], [30.29896272440541, 1.5266906473721373], [30.298980035153747, 1.5266803895173064], [30.299005270901347, 1.5266670491755678], [30.299029882937802, 1.5266555534290525], [30.29906183748007, 1.5266421727834345], [30.299139188932077, 1.5266122248225038], [30.299177430237773, 1.5265981653011385], [30.29919835210989, 1.526591251234169], [30.299221826727326, 1.5265845247531005], [30.29929559462412, 1.5265672730530309], [30.299308932539386, 1.526562877082431], [30.299323672500176, 1.52655609436679], [30.29933628882986, 1.5265470659452358], [30.299344037102575, 1.5265380892047937], [30.29934725712497, 1.5265324658453168], [30.299350365039906, 1.5265238528556409], [30.29935183921317, 1.5265140430889652], [30.299350748357632, 1.5264980613216494], [30.29934732534897, 1.526485019100315], [30.299344554435763, 1.5264776051353748], [30.299335818290903, 1.5264593218794982], [30.299317953467664, 1.5264285991951099], [30.299300917532914, 1.5264035935551787], [30.299275915550265, 1.5263728329281112], [30.299222895567638, 1.5263153691567224], [30.29919702590034, 1.526285512053677], [30.299167941640636, 1.526248300072132], [30.299154415948024, 1.5262290428852199], [30.299143120628415, 1.5262114070716968], [30.29912704173838, 1.5261822555009656], [30.299119736164204, 1.5261667882256365], [30.29911004929767, 1.5261432721687045], [30.299099514202762, 1.5261122668607638], [30.29908326174148, 1.5260574278903491], [30.29907252329205, 1.526028907541562], [30.299066334032148, 1.5260162242161086], [30.29905833894375, 1.5260028020802365], [30.299049192376636, 1.525990306603495], [30.299038888769225, 1.5259788769508524], [30.299025827508927, 1.5259673941074738], [30.299013547439007, 1.525958835768341], [30.29899514667432, 1.5259488490516193], [30.298974842873523, 1.5259404622147217], [30.298938963373097, 1.5259292858003108], [30.298888281713925, 1.5259164603701436], [30.298851267891127, 1.5259090148619479], [30.298799716730855, 1.5259007087112129], [30.298780698262913, 1.5258963902141929], [30.298770681375057, 1.5258926659943406], [30.298762487126663, 1.5258877231609769], [30.298758649109843, 1.5258841423107536], [30.298755585788555, 1.525880056360048], [30.29875264676968, 1.5258735079450674], [30.298751713357795, 1.5258695150588262], [30.298751339428513, 1.525861896274504], [30.298754178316578, 1.5258486676791152], [30.2987613144668, 1.5258344043416767], [30.298770298546188, 1.5258224017225084], [30.298780312539485, 1.5258118996673045], [30.298791862582437, 1.5258017230836205], [30.298852245296985, 1.5257576330955493], [30.298869971596314, 1.5257425002153577], [30.298881587167887, 1.525730903977292], [30.298893823088154, 1.5257165585202443], [30.29890485373173, 1.5257009165164095], [30.298916458011234, 1.5256803807200725], [30.298926173478485, 1.5256586821662697], [30.29893174527795, 1.5256437426766174], [30.298939046044453, 1.5256206150084273], [30.298949061941904, 1.525580525340658], [30.298961650549305, 1.5255152695727137], [30.29896709040161, 1.5254808548684256], [30.29897009003874, 1.525456101402051], [30.298972197611803, 1.5254186857683996], [30.298970750322926, 1.5253911278776997], [30.298968654671732, 1.5253786937329057], [30.29896544326803, 1.5253673417316358], [30.29896124814878, 1.525357765189775], [30.29895584363739, 1.5253494703940043], [30.298951259358425, 1.525344477000128], [30.298946068870684, 1.525340257323407], [30.29893778348983, 1.5253356623086092], [30.29892651187512, 1.5253321289990334], [30.29891405434723, 1.5253304919909305], [30.298900600745387, 1.5253304596244248], [30.298882070072548, 1.5253324677542168], [30.298862681815567, 1.5253366400995627], [30.298843646599945, 1.5253428652261545], [30.298830207262807, 1.525348672679289], [30.298816176873544, 1.5253560608852728], [30.29879216462511, 1.5253719521747655], [30.298766353128887, 1.525393344809322], [30.29872492183273, 1.52543217745907], [30.298705581351406, 1.5254491554923995], [30.298691473585972, 1.5254602605745688], [30.298676341746827, 1.5254709414236043], [30.298649253652187, 1.5254870249251724], [30.298634033525488, 1.525494336615006], [30.298620824867964, 1.5254995072372015], [30.298607967231252, 1.5255033127908082], [30.298595607179877, 1.5255055989260085], [30.29858450907774, 1.5255062238223147], [30.298574166383194, 1.525505249195705], [30.298565249789874, 1.5255027572283606], [30.298556463398587, 1.5254981118748034], [30.298551642504474, 1.5254941963130106], [30.29854744389953, 1.5254895739297365], [30.29854238851108, 1.5254814377265113], [30.298538958471653, 1.5254725878364035], [30.298535913933005, 1.5254563315925855], [30.298535469940045, 1.525435777860651], [30.298539867523104, 1.525378106575656], [30.29854039655316, 1.525347075508131], [30.29853947589769, 1.5253321413718863], [30.29853757825991, 1.5253171852153196], [30.298531368903483, 1.525290384953561], [30.298522207271095, 1.5252640599289304], [30.298495584935793, 1.5252012371260102], [30.29848562178683, 1.525176041635953], [30.298474139310375, 1.5251435973426626], [30.298454192451633, 1.5250808977527872], [30.29844435364561, 1.5250560837888676], [30.29843932162756, 1.525045769666505], [30.29843289405111, 1.5250348058174719], [30.298423255987576, 1.525022551022237], [30.298414819679028, 1.5250158537799332], [30.29840748487634, 1.5250130140776292], [30.298403242307014, 1.5250126797638557], [30.298396288714798, 1.5250145055152107], [30.298389928707874, 1.5250191967901996], [30.298384290231972, 1.5250264076280353], [30.298377626970563, 1.525040241394396], [30.29837306078453, 1.5250552924026557], [30.29837007767444, 1.5250689636328967], [30.298358218526154, 1.5251361542402213], [30.29835296126686, 1.5251580979047832], [30.29834772520103, 1.5251760110314623], [30.29833774249204, 1.5252046253615856], [30.29832821004146, 1.5252279083478155], [30.29831690608905, 1.5252517295152894], [30.29830702888103, 1.5252699196366208], [30.298295071806148, 1.5252896524793114], [30.29827861707133, 1.5253141367861416], [30.298191956944454, 1.5254349423444853], [30.298180713227293, 1.5254471933340141], [30.298172955912577, 1.5254533540848023], [30.298168493414828, 1.525455834559712], [30.298164120971688, 1.5254573906491593], [30.298159882672444, 1.5254579519192506], [30.298154220345896, 1.5254569307933605], [30.298151585498456, 1.5254556161733006], [30.298148099321647, 1.5254528933944345], [30.298143684446636, 1.5254474375144544], [30.29813915614126, 1.5254386124458879], [30.29813609801236, 1.5254296491604566], [30.298131656650085, 1.5254080050211438], [30.298128789573443, 1.525374758282913], [30.29812860521421, 1.5253447619802094], [30.298129828400604, 1.525313724571154], [30.298136171362327, 1.5252342003495833], [30.29813833498793, 1.525198645559806], [30.298138785293137, 1.5251630596852823], [30.29813739987347, 1.5251370192270328], [30.298134231965683, 1.525111685931086], [30.298128991842187, 1.525086801872861], [30.29812112328345, 1.5250612213440033], [30.298110425214485, 1.5250356047052884], [30.298100735883587, 1.5250169434198033], [30.298089885400877, 1.5249990461125136], [30.298077875729348, 1.5249817790362792], [30.298060927513152, 1.5249606098081345], [30.298036265458713, 1.52493379346416], [30.297969563664786, 1.5248670946108667], [30.297935089241626, 1.524830984728274], [30.297895568486386, 1.5247866799196794], [30.29786407785097, 1.5247485892563033], [30.297847664236222, 1.5247271821286843], [30.29782942642813, 1.524701045370122], [30.297815656371704, 1.5246790089849767], [30.297786465320083, 1.5246280930176141], [30.297779147220172, 1.524616909350624], [30.29777182446419, 1.5246072981394654], [30.29776229331817, 1.5245971617910286], [30.297756352312256, 1.5245920690866746], [30.297745649969414, 1.5245849903286712], [30.297731092109526, 1.524579002902732], [30.297716264901453, 1.5245765757677672], [30.297701784241813, 1.5245778063993434], [30.29769246565122, 1.524580838329672], [30.2976877940666, 1.524583207384808], [30.29767801665205, 1.5245905196259795], [30.29766956240852, 1.5246003594184883], [30.297661066118952, 1.5246158283889988], [30.297655135644476, 1.5246332399712366], [30.29765111520149, 1.5246527975757074], [30.2976487256645, 1.524674382463241], [30.29764782091386, 1.5247049882878745], [30.297649827314398, 1.5247464821171661], [30.29766322480176, 1.5248727686110732], [30.297670187543705, 1.5249557012589752], [30.29767333944615, 1.5250197541300583], [30.29767466059736, 1.5250843297445011], [30.29767297217231, 1.5251679464123025], [30.29766571048217, 1.5253151476402929], [30.297659095332182, 1.5253983306207368], [30.297653541821287, 1.5254532838373156], [30.29764911085038, 1.5254894900331373], [30.297641655109157, 1.5255360462487735], [30.297630583003258, 1.5255906508809685], [30.29761961314787, 1.5256360007119298], [30.297604393259718, 1.525689868991929], [30.297586689795367, 1.5257435316973789], [30.297570227544394, 1.5257862492904573], [30.297554784458644, 1.5258203765680507], [30.297537304096636, 1.525852861027832], [30.29752664960834, 1.525870021719756], [30.297513283275173, 1.525889280114518], [30.29750113010806, 1.525904954108803], [30.29748822092149, 1.5259198409157047], [30.297474537788553, 1.525933914304852], [30.297457638966183, 1.5259494259520718], [30.2974425221247, 1.5259617605896036], [30.29742683608773, 1.5259732739349556], [30.29740224361609, 1.5259892665637054], [30.297385509265595, 1.5259989142212893], [30.297368460653765, 1.5260078159174362], [30.297348111346228, 1.5260171951164838], [30.297327309451184, 1.5260251386458221], [30.297310512605815, 1.5260301818037953], [30.29728571637368, 1.526035325997436], [30.29726924040419, 1.5260372580762336], [30.297244736203428, 1.526037941006643], [30.297227041001943, 1.5260368115696665], [30.297200376548453, 1.5260329406669915], [30.297171209103514, 1.5260264385995244], [30.297136207191457, 1.5260165447443748], [30.29710062578009, 1.5260047342843028], [30.297064031828693, 1.5259911765696381], [30.29697954029523, 1.5259574226225372], [30.296934401247455, 1.5259423213994643], [30.296900434478868, 1.5259333407008806], [30.296865691901193, 1.5259257579681729], [30.296804253562968, 1.5259142157281111], [30.296750882803153, 1.5259054915313555], [30.296708826429242, 1.525900550132969], [30.296676312887058, 1.5258985343792006], [30.29664477508197, 1.5258989743434805], [30.29662303348753, 1.5259015025314215], [30.296603674381934, 1.525906080643138], [30.296586240352326, 1.5259129792135653], [30.296578811557136, 1.5259170997798988], [30.296570045869988, 1.5259232095334057], [30.29656393472304, 1.5259285246676815], [30.296555548449643, 1.5259378566367097], [30.29654647406829, 1.5259524202310222], [30.29654180841936, 1.52596369175684], [30.29653968262944, 1.525971085050939], [30.29653758648607, 1.5259863732161598], [30.29653803233987, 1.5259975093275544], [30.296539323560395, 1.526005480803396], [30.296544060974743, 1.5260215774023402], [30.296552874261366, 1.5260413346772677], [30.296599045911343, 1.5261233209900298], [30.296631955489723, 1.5261885555710364], [30.296649315876483, 1.5262276567920599], [30.29666299260519, 1.5262646983089623], [30.296670991384204, 1.5262916679912477], [30.296675405902498, 1.5263103343430835], [30.29667858484465, 1.526327521560812], [30.296681814045616, 1.5263533537583605], [30.296683099037715, 1.526371337461074], [30.296683845708554, 1.526397566861247], [30.296683428095115, 1.5264234730659492], [30.29668186779647, 1.5264497365981657], [30.296679231718606, 1.5264759933462533], [30.29667402940505, 1.5265114231448527], [30.29666882043185, 1.52653852974042], [30.29666051268926, 1.5265741128531485], [30.296648561304362, 1.5266165713175317], [30.296578042677442, 1.5268477077715474], [30.29656740605251, 1.526879296231333], [30.296558711440404, 1.5269025296149838], [30.296522102938862, 1.5269882428757033], [30.296474676679814, 1.5271074783009106], [30.296453040486732, 1.527158558556281], [30.296436803967993, 1.5271930534860816], [30.296417219367797, 1.527230013116836], [30.296398425610555, 1.527262171419546], [30.29636860849593, 1.527310588005527], [30.296348121185602, 1.5273427053003443], [30.29632678538221, 1.5273740208297786], [30.296307895136277, 1.5273993189234822], [30.296286864056018, 1.5274246450304014], [30.296270396113986, 1.527442414651415], [30.29625055887229, 1.527461664802863], [30.296234317273903, 1.5274758035928553], [30.29620985224889, 1.5274947044691614], [30.29619011392513, 1.527508099591085], [30.296163657868416, 1.5275235683545922], [30.296144661802515, 1.5275329573550305], [30.296118714768397, 1.5275435096630614], [30.296101914634857, 1.52754902451892], [30.29607668743338, 1.5275555516995305], [30.296051394356244, 1.5275601837114838], [30.29602632887598, 1.527563055579855], [30.29600105876368, 1.52756440533713], [30.295974690522666, 1.5275642336587036], [30.295948310933507, 1.5275623666015141], [30.29592200815361, 1.5275586804688168], [30.295904227030878, 1.5275551768390798], [30.29587824032571, 1.5275486335688446], [30.295841473805364, 1.5275366643074406], [30.295800535895985, 1.5275205860039076], [30.29571627548905, 1.527485193798254], [30.295677820703062, 1.527471118556795], [30.29564461727817, 1.527462115275335], [30.295628878382324, 1.527459167305052], [30.295613820607986, 1.5274572965187267], [30.295592494526527, 1.5274564380801197], [30.29557884787658, 1.5274571274901894], [30.295565772834642, 1.5274588614117457], [30.295553378897058, 1.5274616860727994], [30.295541127757513, 1.5274659315497696], [30.295529913938065, 1.5274714950492905], [30.295519361555574, 1.5274787963210397], [30.295508153201204, 1.5274900396561855], [30.295499586873333, 1.5275033133648634], [30.295495254445445, 1.5275137972580373], [30.29549180342446, 1.527527483215454], [30.295489784669243, 1.5275447740870116], [30.29548933880665, 1.5275709784543574], [30.29549119170285, 1.527658964380473], [30.295489031705607, 1.5277575457605643], [30.29548992768172, 1.5278100968362052], [30.295491513429017, 1.5278360037461882], [30.295494280998476, 1.527865439341609], [30.29550246995797, 1.5279255257743602], [30.29551166988299, 1.5279749813194088], [30.295538847409613, 1.52810627901717], [30.295544179940713, 1.5281383286895909], [30.295547378039902, 1.528164574729719], [30.29554964406432, 1.5281994012363493], [30.295549368376665, 1.5282352737301355], [30.29554668520376, 1.5282725683251754], [30.295542561677742, 1.5283062625131103], [30.29553830345567, 1.528331346866962], [30.295532854863218, 1.5283561441383484], [30.29552549706299, 1.5283824472837857], [30.295517892494672, 1.5284050214008549], [30.295505107433346, 1.5284383639050567], [30.29546484611155, 1.5285374400983118], [30.29544787728636, 1.5285758371760338], [30.295435390662604, 1.5286003245826096], [30.29542578658523, 1.5286169135883836], [30.295411751590105, 1.528638009207366], [30.295400301812844, 1.5286527170548139], [30.29538792031851, 1.5286663943925713], [30.295372190933858, 1.5286809476991434], [30.295360330383396, 1.5286902327540557], [30.295338945027073, 1.5287044336683113], [30.295320309760275, 1.528714684331167], [30.295300887153722, 1.5287233461734684], [30.29527641513883, 1.5287313184047355], [30.295258486498923, 1.528735186143179], [30.295234658623425, 1.5287379131443635], [30.295210229224192, 1.5287383882365295], [30.29518438888249, 1.5287368778917465], [30.29515817258385, 1.528733695203393], [30.295123468791626, 1.5287274318407915], [30.295096782070097, 1.5287212852851924], [30.29506172211805, 1.5287118837840947], [30.295026661164272, 1.5287011321367132], [30.29499273654723, 1.5286893571219944], [30.29494720462597, 1.52867108506166], [30.294842045351356, 1.5286243129313515], [30.29475802652502, 1.5285889598050446], [30.294720168818397, 1.528574972939767], [30.294676820658243, 1.5285618412504811], [30.294632942518717, 1.5285509961820043], [30.29459821119024, 1.5285437902131018], [30.294553922286592, 1.5285361229753662], [30.29447995584879, 1.5285248918085368], [30.29442590404672, 1.5285186662557106], [30.294320769005026, 1.5285106633641417], [30.29429573326564, 1.5285077306905446], [30.29426898401523, 1.5285034890769325], [30.29424111622503, 1.528497535319354], [30.294213607638607, 1.5284901405985627], [30.294179920850777, 1.52847921447093], [30.29415553703017, 1.528469847298866], [30.29412231918819, 1.528454463760915], [30.294105715977206, 1.5284454399295726], [30.2940851901803, 1.5284329824431047], [30.294045450427166, 1.528405292935674], [30.294006963817726, 1.528375090895917], [30.293953340755717, 1.5283298545011177], [30.293919276208516, 1.5282993471979929], [30.293814138784143, 1.5282008132854843], [30.29373648056098, 1.5281252440916946], [30.293707699679626, 1.5280983863561444], [30.293673943544164, 1.5280704315314197], [30.29363435715702, 1.5280421900651011], [30.293605028431948, 1.5280239964130151], [30.293579196231956, 1.5280102850820965], [30.293558794718795, 1.5280011326299225], [30.29353370836895, 1.5279920230351463], [30.293518817178995, 1.5279876563938795], [30.293496314997537, 1.5279823158384744], [30.29343855894029, 1.5279718914712126], [30.293408193879, 1.5279652233310523], [30.293382395963583, 1.5279578398240017], [30.293356831781782, 1.5279488172830642], [30.293327616975045, 1.52793646626473], [30.293298700488982, 1.5279225305173407], [30.29326058374791, 1.527902470402847], [30.29321543244137, 1.5278772014165105], [30.29305952670461, 1.527785822897292], [30.293027084870246, 1.5277653334942367], [30.292989194637446, 1.527738657611013], [30.292964918826307, 1.5277190786640216], [30.292934915391704, 1.5276911240974445], [30.292913031367778, 1.527668313808105], [30.29286832707957, 1.5276188250689846], [30.29285189942675, 1.5276022898349713], [30.292833821762674, 1.5275868035227025], [30.292812314064086, 1.5275725419048771], [30.292791755657387, 1.5275624837422774], [30.292762788622444, 1.5275523552679946], [30.292731338519886, 1.5275444928591004], [30.29268293714704, 1.527535228077342], [30.292599224009237, 1.5275226741802], [30.292492781475044, 1.5275055412677572], [30.292451814992077, 1.5275016313585277], [30.29237233021924, 1.527498600690143], [30.292349198264763, 1.5274956613976107], [30.292326947443993, 1.5274904024969311], [30.292305864054335, 1.5274822342292156], [30.292291830869548, 1.5274746713546217], [30.292283977176197, 1.5274696006174875], [30.292268121315207, 1.5274575539354944], [30.292218965110557, 1.527415035301651], [30.292202500534657, 1.5274028956698824], [30.29218243676406, 1.5273901026086547], [30.29216051307416, 1.5273781837860223], [30.292137690298684, 1.5273678624847216], [30.292115031846084, 1.527359698546191], [30.292099123426446, 1.527355202290613], [30.292075897575142, 1.5273505223353165], [30.29205980260906, 1.5273487071484637], [30.292038277495994, 1.5273483617330041], [30.292017042936003, 1.5273504811010759], [30.291996351148494, 1.527355155943523], [30.291980247709787, 1.5273608216502705], [30.291962085038907, 1.5273694805399989], [30.29194714406012, 1.5273783549849853], [30.291929022391656, 1.5273908411343338], [30.291850710204837, 1.5274489081015565], [30.291763507552538, 1.5275094724726073], [30.291689709030088, 1.5275629145413594], [30.291578416326452, 1.527639856053719], [30.29153979174838, 1.5276682422309302], [30.291509645633077, 1.5276932755628285], [30.291487457675885, 1.5277145369729372], [30.291467317642454, 1.5277375297765146], [30.29144920179412, 1.5277632823641494], [30.291440264525612, 1.5277787642032634], [30.291432695245668, 1.5277939576881294], [30.291425614583375, 1.52781049199316], [30.29142005501632, 1.5278256627249285], [30.2914087910529, 1.527864803416558], [30.291399727773857, 1.5279084573116912], [30.291395700287342, 1.5279349914143179], [30.291392934844968, 1.5279597901907378], [30.2913858374067, 1.528060622426521], [30.29137597781488, 1.5281556845882411], [30.291372244991464, 1.5282007369596733], [30.291369057792444, 1.5282704178945452], [30.29136723098747, 1.5283780924724173], [30.29136576525505, 1.5284147956455916], [30.291355987773336, 1.5285532015853802], [30.29133979066447, 1.5288147016676632], [30.291336811285234, 1.5289584996299317], [30.291332473034274, 1.529061659698575], [30.291332598776123, 1.5290859786599638], [30.29133387281911, 1.5291169142281527], [30.291340306861574, 1.5292121190799217], [30.29134234103238, 1.529231254082015], [30.29134586657366, 1.5292548263816057], [30.291352723458747, 1.5292856940364274], [30.291360846843354, 1.5293112775085034], [30.291371113863075, 1.5293360259668123], [30.29138120299062, 1.5293558372385179], [30.291396676701947, 1.5293818692543333], [30.291424517506524, 1.5294235918150383], [30.291454318285986, 1.5294648559765034], [30.291479130997928, 1.5294959181577528], [30.2915001462774, 1.5295197133099436], [30.29152485218213, 1.5295450087910019], [30.291557153940193, 1.5295747484252407], [30.29159077823417, 1.5296032118968943], [30.291663124182993, 1.5296619644874443], [30.291768512502244, 1.529753507682689], [30.291791293199314, 1.5297751750435593], [30.291807439782218, 1.5297916828320974], [30.291860364116122, 1.5298504667840747], [30.2918897749737, 1.529880446756976], [30.291912665870388, 1.5299008861204264], [30.291987463796733, 1.5299628518248571], [30.292060768058846, 1.5300279370477172], [30.29208187902752, 1.5300491938170766], [30.292095203702594, 1.5300653419629946], [30.292109199579798, 1.5300861739838445], [30.29212097140669, 1.5301082331266669], [30.292129027559437, 1.530127283617461], [30.292134520116523, 1.5301440688656647], [30.292138030423118, 1.5301583103639098], [30.29214098523092, 1.5301758478877503], [30.292142313655827, 1.5301906297421628], [30.29214245787546, 1.5302130943317342], [30.292141004528606, 1.5302313076494343], [30.292138855499044, 1.5302464556045126], [30.292134503855642, 1.5302679303397833], [30.29212679478934, 1.530297163670057], [30.29209737918102, 1.5303918756781019], [30.2920561805178, 1.5305371370408778], [30.292042630777, 1.530580102936599], [30.292014325468074, 1.5306616068238554], [30.292001672036392, 1.5307008957595962], [30.291990271570775, 1.530742107573424], [30.291975610505936, 1.5308019280346328], [30.291965925652814, 1.5308463438697872], [30.291960050535096, 1.5308774980983795], [30.291957132604857, 1.530897109395282], [30.291954482818927, 1.5309248679712761], [30.291953799372266, 1.5309492464644734], [30.291954690278487, 1.5309734760404468], [30.291957232940085, 1.5309974167228109], [30.29196155955352, 1.531020915049253], [30.29196552375038, 1.5310362533247226], [30.29197043303363, 1.5310512674669674], [30.291979047557618, 1.531071876666941], [30.291987818340427, 1.5310889028589387], [30.291999626862857, 1.5311081867655654], [30.292010833459617, 1.531124115338303], [30.29202503017698, 1.5311423223505205], [30.292037952844012, 1.5311575183908532], [30.292062419208744, 1.531183354023673], [30.2920861338611, 1.531205694057394], [30.29210987132287, 1.5312263179767855], [30.292220833150427, 1.5313188145925456], [30.29225870469558, 1.5313524662934157], [30.292286392781925, 1.531378503038948], [30.29232204467217, 1.5314141717095873], [30.292353392852707, 1.5314481476818325], [30.29238306274654, 1.5314828020138216], [30.29240993351548, 1.5315168265158159], [30.29243022708097, 1.5315461352295396], [30.292444637173908, 1.531570340441837], [30.29245520865704, 1.5315907515174874], [30.292467129039927, 1.5316189262707185], [30.29247511586058, 1.5316445502706917], [30.292480372350262, 1.5316705377037318], [30.29248257942677, 1.5316935507643425], [30.292482543385482, 1.5317165248230349], [30.292481268032613, 1.5317317082323825], [30.292478967412798, 1.5317467068843138], [30.292474827815795, 1.5317644884294892], [30.29246931299586, 1.5317818796298377], [30.29246374039458, 1.5317959432979336], [30.29245930747974, 1.53180506578341]]]}}]}