{"type": "FeatureCollection", "name": "Nyamukau site 3", "features": [{"type": "Feature", "properties": {"OBJECTID": 1267, "fid_1": 10796.0, "ID": 10795, "ELEV": 1351.0, "Shape_Leng": 9609.00841486, "area": 372165.421, "Name": "Nyamukau site 3"}, "geometry": {"type": "Polygon", "coordinates": [[[30.290701939695634, 1.538420745634435], [30.292814301416747, 1.5404083621004194], [30.29281965970349, 1.5403975407492956], [30.292832757520795, 1.5403764079843167], [30.292848097015746, 1.540357172261953], [30.29286536233091, 1.5403396479175833], [30.292894451754695, 1.5403140730867948], [30.292917200487377, 1.5402963126565257], [30.292941274667136, 1.5402799619005991], [30.292973191546736, 1.5402617432656112], [30.292999354925705, 1.5402492811322164], [30.293023094507, 1.5402397628960143], [30.293120558563963, 1.5402078203030178], [30.293149766681378, 1.5402006080955692], [30.293173747920044, 1.5401974134236112], [30.293198054190338, 1.540197095676008], [30.293225507084646, 1.5402002784064122], [30.293245888741154, 1.5402045464865124], [30.29327373326619, 1.540211912087769], [30.293399821421733, 1.5402505515029161], [30.29342576662375, 1.5402572694261725], [30.293507141608014, 1.5402763965884607], [30.293548296920065, 1.5402874103189554], [30.293573934226792, 1.5402954626284524], [30.29360652376017, 1.540307788437309], [30.293631147871007, 1.5403188957997516], [30.293658114877637, 1.5403328157939356], [30.293721768667886, 1.540367818369283], [30.29380040555862, 1.5404076885128455], [30.293839145528118, 1.5404298943221462], [30.293858849028233, 1.540442845289735], [30.293887796354266, 1.5404636830119378], [30.293922748314007, 1.5404910992928968], [30.293950365231822, 1.5405144566677842], [30.29398635191131, 1.540546666651242], [30.294066897816727, 1.5406214920649821], [30.294094034506454, 1.5406454082265582], [30.294119094549156, 1.5406661605530674], [30.294160500819228, 1.540696777905274], [30.29425206522003, 1.5407579777164397], [30.29432951643635, 1.5408116559729015], [30.294373236485743, 1.5408439734593553], [30.294425792449214, 1.5408857830786746], [30.294459950160398, 1.540914974151448], [30.294500430226893, 1.5409523012876118], [30.294633066433555, 1.5410828890738275], [30.29468042839165, 1.5411268654885866], [30.294722528973544, 1.5411630605494115], [30.29475982399054, 1.5411931873710378], [30.294795654551233, 1.5412203391109387], [30.294834260352005, 1.5412471365315774], [30.29487374182123, 1.541270989878061], [30.29489185850911, 1.5412804523130723], [30.294917858407825, 1.5412922464648713], [30.29494094611128, 1.5413012055646522], [30.294967222557304, 1.5413101832021283], [30.294993312885435, 1.541317924324474], [30.295015962927064, 1.5413235987775171], [30.295033868530812, 1.5413274190728805], [30.29505727422324, 1.541331323217866], [30.29508099991223, 1.541333558616952], [30.295097045080897, 1.541333664086108], [30.295112382743824, 1.5413322594521814], [30.295124463849866, 1.5413297824663454], [30.295138131853232, 1.541325055460809], [30.295150643273832, 1.5413181716240396], [30.295163608565232, 1.5413074268081974], [30.295173084008013, 1.541296173258069], [30.295179817984444, 1.5412855515110675], [30.295188495340664, 1.5412670057953326], [30.295194951675256, 1.5412472670509745], [30.295199958894035, 1.5412252030109268], [30.295203350656603, 1.5412009815529242], [30.295204775681288, 1.541177579957351], [30.295204597491793, 1.541151570911303], [30.295202306294232, 1.5411156318921317], [30.29519864896051, 1.541079923380123], [30.29519295825946, 1.5410352176275417], [30.29517619056918, 1.5409181709682505], [30.295169226997242, 1.5408837514416986], [30.295159724190277, 1.5408491072598558], [30.295150491551983, 1.540822388070088], [30.295142626666152, 1.54080269337131], [30.29509519074902, 1.5406984781731552], [30.295074330719252, 1.5406562716779335], [30.295058580449155, 1.540630275261931], [30.295042013686288, 1.540608721351824], [30.295027714225604, 1.540593668929288], [30.295016297623608, 1.540583352025125], [30.294992910763458, 1.5405652442865096], [30.294944679952426, 1.5405323119387415], [30.294930913212657, 1.5405220724615205], [30.294920570498924, 1.540513265225322], [30.2949040146611, 1.5404965751064859], [30.29488983764535, 1.5404798491692073], [30.29486336251027, 1.540445448089336], [30.294844324555726, 1.5404195658626798], [30.294827657061205, 1.5403952925616111], [30.294817740043065, 1.5403793329962776], [30.29480851531468, 1.5403627100882984], [30.294793558418917, 1.5403306679620217], [30.294780981627834, 1.5402982845646995], [30.294769929027893, 1.5402656618252442], [30.294759185258723, 1.540230254243091], [30.294749267168584, 1.5401930854799677], [30.294738163171495, 1.5401421281836387], [30.294710804800072, 1.5399992553391892], [30.294698295250097, 1.5399384873687245], [30.29468722730763, 1.5398931105390505], [30.29467101394321, 1.5398370091206657], [30.294654148250526, 1.53978690751205], [30.29464043897346, 1.5397524784814918], [30.294627143138648, 1.5397234523649947], [30.294593179253496, 1.5396566355606403], [30.294576827034852, 1.5396201951098936], [30.294561061030002, 1.539578197585921], [30.29454799631743, 1.5395353775223666], [30.294541048711515, 1.5395082166469098], [30.294535122948613, 1.5394811103962247], [30.29453051976013, 1.5394541341625099], [30.29452828163717, 1.5394351777712585], [30.294526907525377, 1.5394118349667867], [30.294527177999825, 1.539388912681651], [30.294529148415418, 1.5393666649292688], [30.29453146083784, 1.5393523485818987], [30.29453654683241, 1.5393318769869107], [30.294544937739236, 1.5393104471614478], [30.294552586158222, 1.539296729561107], [30.294561561915973, 1.5392843484374257], [30.29456740893371, 1.539277776890095], [30.29457642359974, 1.539269433596891], [30.294583367965398, 1.5392642822775582], [30.294596270480206, 1.5392570049073167], [30.29461392040109, 1.5392506499642824], [30.294632990994593, 1.539247101051279], [30.294649128252004, 1.539246086011892], [30.294665862770618, 1.5392464173611735], [30.29469035063165, 1.53924880642372], [30.294708114671092, 1.5392516495974526], [30.29474455894583, 1.5392592773830283], [30.294840919987372, 1.5392824198014992], [30.2948840344686, 1.5392943731354058], [30.294918827102066, 1.5393057546350104], [30.294956367527764, 1.539319318492562], [30.29501885698065, 1.5393434288997194], [30.295050763086007, 1.5393544099835441], [30.295079837859863, 1.539361806946245], [30.29509833533729, 1.539364829990965], [30.295113744910314, 1.539366204336636], [30.295136903109565, 1.5393662583158723], [30.29516174309885, 1.5393635798118608], [30.295185360454386, 1.5393584253836479], [30.295212387987778, 1.5393493071130415], [30.295240722587646, 1.5393362394839882], [30.295268096090233, 1.5393205200403641], [30.295292467606107, 1.539304092770377], [30.295317491468506, 1.539284495208415], [30.295336810235863, 1.5392671631943136], [30.295354806653982, 1.5392488092002932], [30.29537115834937, 1.5392294291998971], [30.295382524714007, 1.5392133630692677], [30.295391317823217, 1.539198416062164], [30.29540176966792, 1.539175517606284], [30.295409318791677, 1.5391522367881263], [30.295414530773503, 1.5391279842063132], [30.295418044803217, 1.5390957795042097], [30.295418587404605, 1.5390792269095563], [30.29541798221522, 1.539052828717574], [30.295413871619438, 1.5390076351721016], [30.295399965037507, 1.5389060176275353], [30.295395258895372, 1.5388616746192525], [30.295392179219363, 1.538807906167319], [30.295392193921476, 1.5387812828394463], [30.295393003181903, 1.5387633370619545], [30.295395639791863, 1.5387361775653319], [30.29539862481537, 1.538716146991275], [30.29540414952597, 1.5386881434996709], [30.295409662489643, 1.5386651845115888], [30.29541934903526, 1.5386296195538731], [30.29542984234259, 1.5385959001009957], [30.29543813610663, 1.5385724449088887], [30.295448864849835, 1.5385464326091416], [30.295461526079666, 1.5385204101235224], [30.295475758383855, 1.538495423488802], [30.295490319798084, 1.5384736454502685], [30.29550220797089, 1.5384582207078603], [30.295517299544322, 1.5384411562018545], [30.295528691451302, 1.5384297505353366], [30.295549216029425, 1.5384111295409393], [30.295573453869753, 1.538391024871334], [30.295601560991123, 1.5383696201787282], [30.29563097828692, 1.5383496350807182], [30.295657404233896, 1.5383340400111678], [30.29567632824688, 1.5383242453310593], [30.295695719828046, 1.5383153893001338], [30.295722600686933, 1.5383050761013073], [30.295747854811385, 1.5382972776636887], [30.295773670217006, 1.5382908752729818], [30.29581599670007, 1.538283260383573], [30.295859061747485, 1.5382781668881012], [30.295912179014266, 1.538274407444948], [30.295965338614927, 1.5382733989538602], [30.296029570895286, 1.538275591982152], [30.29607465800325, 1.538279227306238], [30.29612780203808, 1.5382870164300761], [30.296173147921117, 1.5382969482464457], [30.296219568792306, 1.538310371571125], [30.29627645820748, 1.5383303945078441], [30.29633948000486, 1.5383554065317004], [30.29637349054886, 1.538370338586105], [30.296397439922767, 1.538381773089084], [30.296440415335233, 1.538405080440777], [30.296467864425953, 1.5384220230185663], [30.296487582916587, 1.538435241475269], [30.29651348241652, 1.538454052761713], [30.296529307329017, 1.538466471888041], [30.29655953361571, 1.5384929133186167], [30.296576195501384, 1.5385095737329164], [30.29659745323767, 1.5385334154892922], [30.296617415398163, 1.5385585045241224], [30.296638387517916, 1.5385873805004286], [30.29675099990502, 1.5387486082600976], [30.29677431499064, 1.5387866662413547], [30.29679759033415, 1.5388306091505541], [30.296822967103886, 1.5388858547671633], [30.296833865250687, 1.5389128381742334], [30.29684675409439, 1.5389484925350805], [30.29688712637056, 1.5390764682177727], [30.296926229026948, 1.539180811100573], [30.296939846071467, 1.5392200812471832], [30.296955752291193, 1.5392720225632368], [30.29698060449982, 1.5393608585326723], [30.29698783081897, 1.5393835157048885], [30.296995800064483, 1.5394052321568055], [30.297007499001673, 1.539430959528929], [30.29701431498158, 1.5394428945282423], [30.297021707190005, 1.539453628325015], [30.297034248360795, 1.5394673084723771], [30.297040238204428, 1.539472105796578], [30.2970484251692, 1.5394771128755553], [30.297053685321362, 1.5394794746657505], [30.29706559408846, 1.5394826402098962], [30.29707592477978, 1.539483197431563], [30.297081829696218, 1.5394827043118036], [30.297087802658996, 1.5394816582065594], [30.297099914853053, 1.5394780298961472], [30.29712020540782, 1.539468423118551], [30.29714465929174, 1.5394529258307816], [30.2971698913933, 1.5394341364051032], [30.297200701830015, 1.5394089250834624], [30.297278590222636, 1.5393410815332087], [30.297303742148202, 1.539321780497552], [30.297319619416893, 1.5393111884565622], [30.297338858205997, 1.539300328687357], [30.297348744729437, 1.5392956302474055], [30.29736474321158, 1.5392893264790104], [30.2973885993574, 1.5392828357282051], [30.297411300934037, 1.5392797116426484], [30.297428467701003, 1.5392791117945093], [30.29744486511509, 1.5392797580887128], [30.29746227127012, 1.5392815949566911], [30.29748755581697, 1.5392860373424833], [30.297504097244296, 1.5392899823735848], [30.297528318668977, 1.539297196898697], [30.297544610776686, 1.539303024950148], [30.297569117453232, 1.5393133368648513], [30.297601062540902, 1.5393297908703159], [30.297631446061295, 1.5393490642766494], [30.297662057309775, 1.5393714765707132], [30.29771637963385, 1.5394141668218184], [30.29774254324303, 1.5394329260548274], [30.297762199034267, 1.5394446135593567], [30.297782691123345, 1.5394532385425557], [30.297794468352883, 1.5394560397198462], [30.29780511840842, 1.5394568567113551], [30.297815654294038, 1.5394556347794734], [30.29782599960913, 1.5394517177306164], [30.297831480907746, 1.5394481903014536], [30.297840104149916, 1.5394397777913211], [30.29784578372943, 1.5394314003845246], [30.297850569780362, 1.5394216183703493], [30.297854501535287, 1.5394106532086949], [30.297859003765858, 1.5393923614654983], [30.29786215901441, 1.5393719262023289], [30.297864210759, 1.5393499631588488], [30.297865723905044, 1.5393185773106477], [30.297868236969162, 1.5392312311803191], [30.29787846984385, 1.5390620771913401], [30.297880120563853, 1.5390084402825557], [30.297878878233714, 1.538972403119592], [30.297875825038325, 1.5389446154552424], [30.297872136876137, 1.5389218868732635], [30.297856352279172, 1.538838223531529], [30.297852615567102, 1.5388112618940435], [30.29785015025768, 1.5387844220722717], [30.29784920232169, 1.5387577667360903], [30.297849590466743, 1.53873905855348], [30.29785169027498, 1.5387095820959946], [30.297856565205095, 1.5386584525864027], [30.29785773366149, 1.5386333597589084], [30.297856662721472, 1.5386002671141934], [30.2978534286052, 1.5385749499732937], [30.29784821250085, 1.5385497279059477], [30.297841248685, 1.5385246798341277], [30.2978350471515, 1.5385061394720951], [30.29782425688159, 1.538478326579979], [30.297798099354505, 1.5384204998402993], [30.29773714604728, 1.5382966603604946], [30.297716663359072, 1.5382527553396503], [30.297641507844233, 1.538082924058298], [30.29763244449973, 1.5380607453169388], [30.29762156131212, 1.5380304136647087], [30.297613505849448, 1.538002974789801], [30.297607805590395, 1.5379785699725745], [30.297603312470656, 1.5379539751073197], [30.297598940215707, 1.5379211087079847], [30.297595122924232, 1.5378768236944251], [30.297592853794598, 1.5378346580551465], [30.297592525563022, 1.53780006981558], [30.297594356436633, 1.5377709228753293], [30.297597874935747, 1.5377486716117676], [30.29760223864341, 1.5377312562919592], [30.297606859426583, 1.53771720943942], [30.29761683818795, 1.5376941539720097], [30.297625485591094, 1.5376786581769533], [30.297637261036023, 1.5376614664839625], [30.297653547093145, 1.5376421324132], [30.29767153786115, 1.537623968112382], [30.29777689440295, 1.5375278659487799], [30.297796856056685, 1.5375120041060262], [30.297811924789873, 1.5375016649461357], [30.297832450422337, 1.5374893391482352], [30.297853869304227, 1.5374779272387766], [30.29793191823299, 1.5374400969394517], [30.297973907663476, 1.5374184875280652], [30.29800967934718, 1.5373983486668477], [30.298026027043147, 1.5373878321965841], [30.29803581266456, 1.5373805291035947], [30.29804987236696, 1.5373670871071619], [30.298058500338577, 1.5373548979660856], [30.298061652252578, 1.5373485027855143], [30.29806395487832, 1.5373419393357086], [30.29806534443121, 1.537335229224554], [30.298065653848425, 1.537325546326413], [30.298064703501872, 1.5373186244759072], [30.298060150229205, 1.5373047114240308], [30.29805667476767, 1.5372977601484819], [30.2980491015756, 1.5372859678798174], [30.298034296205703, 1.5372682705682847], [30.29801625878825, 1.5372507137332116], [30.297987997231008, 1.53722713688689], [30.297957879239423, 1.5372045020567087], [30.297923994820486, 1.5371806406075132], [30.297846138823996, 1.5371279425681625], [30.297818629451253, 1.537107489014356], [30.297798053696013, 1.5370897102501506], [30.297784643992454, 1.537076149210421], [30.29777232200257, 1.5370616786135787], [30.297756719104445, 1.5370397906750777], [30.29774287710301, 1.5370165259137896], [30.29772708810125, 1.5369848188923434], [30.297713422079962, 1.5369515809746326], [30.29770130381286, 1.536917219002503], [30.297689462036693, 1.5368786451749314], [30.297681926058598, 1.5368508337343492], [30.29765664567712, 1.5367417169935846], [30.297647960795548, 1.5367077751066363], [30.297637981943605, 1.536674519297705], [30.297629522901342, 1.5366509333510592], [30.297614792335466, 1.5366180302644545], [30.297597549512517, 1.53658772757667], [30.297577084718593, 1.5365574090372727], [30.29754265624494, 1.5365113218927866], [30.297513562993604, 1.5364750251461838], [30.297492619804206, 1.5364516618817767], [30.297470613198705, 1.5364313102435363], [30.29744639364981, 1.5364133352641576], [30.29741826833998, 1.5363963927731592], [30.297385608803257, 1.5363796677244441], [30.2972831190882, 1.5363341789133222], [30.29725144476862, 1.536318789001502], [30.29722831482455, 1.5363055445435705], [30.29721547698891, 1.5362971073931107], [30.297200832911944, 1.5362861185675267], [30.2971872559528, 1.536274173165473], [30.29717291905027, 1.536258851427418], [30.297160494853767, 1.536242112392666], [30.297151536948103, 1.5362267631652826], [30.297141963252656, 1.5362048033966906], [30.29713559309714, 1.5361832326904112], [30.297131476253206, 1.5361607457781565], [30.297129899869955, 1.5361453625748214], [30.297129219083693, 1.5361297401245433], [30.297129904766614, 1.536105050654497], [30.297133760911922, 1.5360720628107785], [30.297141173830013, 1.5360370642165075], [30.297151584899634, 1.5360022537974125], [30.297164692925183, 1.5359679248763922], [30.29718242229812, 1.5359297935927456], [30.29720218684716, 1.5358935410077472], [30.297219530807784, 1.5358655452766785], [30.297243804664628, 1.5358303223379428], [30.297262354619825, 1.535805901421914], [30.29727798560376, 1.5357868800891268], [30.297299077950896, 1.5357630281329708], [30.297336019674464, 1.5357235810954546], [30.2973773721042, 1.5356814520272726], [30.29746210682195, 1.5355990147349698], [30.29748626085277, 1.5355733845449382], [30.297534072587304, 1.535519771163406], [30.29755164952655, 1.5355014517717434], [30.29757103977491, 1.5354836344410143], [30.29758558261848, 1.5354722896605428], [30.297603648723296, 1.5354605905900875], [30.297619953373935, 1.5354521435490085], [30.29763704457126, 1.535445199480373], [30.297651758553517, 1.53544058577368], [30.29766690597, 1.5354369215175634], [30.29769030797468, 1.53543304997266], [30.297714356097227, 1.5354309541429427], [30.297738877206463, 1.5354304901177016], [30.29778241582383, 1.5354329909804179], [30.297826389290577, 1.5354388894550746], [30.29787172385838, 1.535447848731985], [30.297960202087015, 1.5354684792523665], [30.29798564419359, 1.5354732931811417], [30.298010760764804, 1.5354770466393812], [30.298043071906193, 1.5354801902098545], [30.29806656411378, 1.535481005434585], [30.298088901720522, 1.5354802205200948], [30.298109743845792, 1.5354775521701058], [30.298129375964, 1.535472354592532], [30.298134957044226, 1.5354701566334734], [30.29814735214925, 1.5354636141566664], [30.298153845042467, 1.5354589917900452], [30.298163491079453, 1.535449844022472], [30.298168278642517, 1.5354438286699763], [30.29817493160213, 1.5354325958403412], [30.298177896679604, 1.5354255190159003], [30.298180821230368, 1.5354149619379742], [30.298182391261772, 1.5353975358150982], [30.29818136950844, 1.535385258466503], [30.29817873249141, 1.5353728046457191], [30.298171385671967, 1.5353530771653676], [30.298165929142865, 1.5353426250978741], [30.29815949715216, 1.5353323669913845], [30.298152140802397, 1.5353223688820352], [30.298142886200075, 1.5353115767040275], [30.298123070350403, 1.5352929060663283], [30.298102666343667, 1.5352777880831208], [30.29808194058322, 1.5352650319985202], [30.298059932238, 1.5352531933589495], [30.298028588957585, 1.5352380388638838], [30.29795076888551, 1.5352024726934617], [30.297926194100043, 1.5351899087220262], [30.297899132839916, 1.5351744379550534], [30.297871671255038, 1.5351566811873578], [30.2978451488848, 1.5351375619114864], [30.29770414307744, 1.5350266016708807], [30.29766515522744, 1.5349985749003487], [30.297636639136, 1.5349810354938962], [30.297603498599, 1.534963334764849], [30.297568856061634, 1.5349475109450936], [30.297532812463135, 1.5349339889081792], [30.297497394109577, 1.5349238475547944], [30.297471041447096, 1.5349183266749307], [30.297437082536085, 1.5349137386891163], [30.297403034073096, 1.534911813831952], [30.297377117057678, 1.5349119155058433], [30.297341581213303, 1.5349138123656212], [30.297238970686802, 1.5349237527676625], [30.297203168454537, 1.5349261165052097], [30.297167304165107, 1.5349264133712923], [30.297123000717555, 1.5349237335106336], [30.297075266295785, 1.5349180019626243], [30.29701406791102, 1.5349083058606314], [30.296741868473184, 1.5348575286366755], [30.296711335581186, 1.5348492352634984], [30.296687864756187, 1.534840006498933], [30.29666562634931, 1.5348283347602727], [30.296642368706063, 1.534812390778515], [30.29661520255148, 1.534788954563267], [30.29658535366384, 1.5347587226302037], [30.29655778200435, 1.534727119953372], [30.296519908982738, 1.5346802169649625], [30.29650467598522, 1.5346641051680665], [30.296493275946585, 1.5346541534358682], [30.296481193353912, 1.534645696479362], [30.296473771310115, 1.534641538992713], [30.29646054107345, 1.534635951670443], [30.296452492650282, 1.5346336062339694], [30.296438286793794, 1.5346311987381007], [30.29642971709897, 1.5346306311444005], [30.29641206396343, 1.534631001791781], [30.296393732843413, 1.5346328039603734], [30.29630851800891, 1.534644366948316], [30.296267545847606, 1.5346469202018551], [30.296236636053962, 1.5346462970611767], [30.296217860083495, 1.5346448037263367], [30.296191214617323, 1.534641500179809], [30.296088809606047, 1.534623045258823], [30.29606418492712, 1.534619495762868], [30.296006838862684, 1.5346127479491052], [30.295952393810058, 1.5346041692915287], [30.29585287067053, 1.5345848387224605], [30.295817986943327, 1.53457734592214], [30.295786871660393, 1.534568754486431], [30.29577163213612, 1.5345635622393559], [30.295753614061887, 1.5345563647331975], [30.295738183063914, 1.5345491904020554], [30.29572235054995, 1.5345406789698515], [30.295695735300615, 1.5345233471385544], [30.29567277091059, 1.5345048749520844], [30.295649991158363, 1.534482393231325], [30.295629385582263, 1.5344576522879034], [30.295618700285893, 1.534442753647345], [30.29560623666399, 1.534423099218761], [30.29558996549951, 1.534392070344687], [30.295576222263254, 1.5343595400088563], [30.295561855512357, 1.5343179681466195], [30.29554854821502, 1.534272245981544], [30.29554133537704, 1.5342423917172383], [30.295535902138734, 1.5342119920689548], [30.295533157189432, 1.5341868229117415], [30.29553173236873, 1.534159441340848], [30.29553145174364, 1.534124787249718], [30.295532374943082, 1.5340904329156], [30.295540305077534, 1.5339668007689988], [30.295540293242063, 1.5339412013086144], [30.295539287474238, 1.5339247804882727], [30.2955359390299, 1.5339010736730982], [30.295530279719912, 1.5338790683179457], [30.295524758726398, 1.5338641889067697], [30.29551538068345, 1.533845172817154], [30.295501625191005, 1.5338238195810607], [30.295484718810037, 1.5338023457571004], [30.295463615664808, 1.5337790989331046], [30.29543636001835, 1.533752585496263], [30.295406089972484, 1.5337266710003057], [30.295308089143184, 1.533649332267921], [30.2952393514719, 1.5335931017183386], [30.295207940142884, 1.5335657154368425], [30.295133493180035, 1.533497963440181], [30.295009034715445, 1.5333915222845378], [30.29498682974284, 1.5333711397391145], [30.294961566728983, 1.5333453527239116], [30.294940261314846, 1.5333208612447466], [30.294920336541526, 1.533295309661982], [30.294895403275362, 1.5332586532282515], [30.29488025070295, 1.53323286642774], [30.294866982266214, 1.5332076685335454], [30.294849244250187, 1.5331684095310658], [30.29484249942882, 1.5331505689180924], [30.294834538869246, 1.5331261856960954], [30.294827580975852, 1.533101394368749], [30.2948189806435, 1.5330658955880152], [30.29481165420601, 1.5330299592246663], [30.294806961092405, 1.5330022626363968], [30.29480344651738, 1.5329764084074917], [30.29479986306215, 1.532941763691339], [30.294795007212738, 1.532869182267998], [30.294793872560813, 1.5328073714910333], [30.294796603062135, 1.5326967625094314], [30.294798743250727, 1.5326507708451957], [30.2948029926264, 1.5326049246496196], [30.29480985476692, 1.5325543716332315], [30.294817703320515, 1.5325127765534394], [30.29482527409778, 1.5324814301098608], [30.294847286222453, 1.5324000825118194], [30.29485331284794, 1.5323734324983322], [30.29485808496814, 1.5323475110881548], [30.29486175153753, 1.5323224070344672], [30.294865479025603, 1.532288834379056], [30.294874952943104, 1.5321721176444791], [30.29487819746496, 1.5321477206592442], [30.29488164953546, 1.5321282401275527], [30.294889772970503, 1.5320929921565183], [30.294897559081946, 1.5320660732638354], [30.294937724770932, 1.531949037669957], [30.294947032702314, 1.5319187516734294], [30.29495379383181, 1.5318928463431285], [30.294957734422333, 1.531874780738674], [30.29496216640191, 1.5318494083481167], [30.294972483295602, 1.5317693318438894], [30.294979808127348, 1.5317250050709432], [30.294995074761907, 1.5316570563367038], [30.29501217822386, 1.5315916123119913], [30.295025306281953, 1.5315526573424962], [30.295032314591694, 1.5315358617339427], [30.295040764270883, 1.531518269979623], [30.29505015336593, 1.531501296653751], [30.29506050516098, 1.5314849923937186], [30.295078989295156, 1.5314606789314629], [30.295102317436093, 1.5314361529253797], [30.295125617297877, 1.5314162728632208], [30.295144055271752, 1.5314029837166947], [30.295170581120804, 1.5313870642010514], [30.295194325798278, 1.531375524151888], [30.295226029366965, 1.5313632414226188], [30.295259040246602, 1.5313532322843313], [30.295300342234427, 1.531343227353085], [30.29536241875773, 1.5313306723321465], [30.295416738646043, 1.5313215578252048], [30.295463867923264, 1.5313156504912442], [30.295509295373872, 1.5313127205316839], [30.295535462943302, 1.531312539595188], [30.295562707611122, 1.5313134625551497], [30.29571899611881, 1.5313262434770825], [30.295772578176564, 1.5313290606345535], [30.295817727363406, 1.5313303461314483], [30.295862839826924, 1.5313301259964873], [30.295898495646135, 1.5313284271236347], [30.295934545986384, 1.5313250541725882], [30.295971708498215, 1.5313198806313242], [30.296016898330624, 1.5313116753898002], [30.29607058450336, 1.531299507315395], [30.296124043085584, 1.5312847949993678], [30.29617566784777, 1.531268038865491], [30.29622638959106, 1.5312481348555849], [30.29630494528852, 1.531213247394037], [30.296341497089518, 1.531194536356745], [30.296370937280283, 1.531176181386621], [30.29638863973196, 1.531162953634022], [30.296404739533653, 1.5311488038664316], [30.296415731705334, 1.5311374202025125], [30.296426661129345, 1.531123798866454], [30.29643479934411, 1.5311111039060121], [30.29643912557021, 1.531102731080567], [30.2964449066449, 1.5310878253570244], [30.296448654641672, 1.5310722302302537], [30.29645070800957, 1.531056019330827], [30.296451437649438, 1.531029139327695], [30.29645041421644, 1.53100313550724], [30.296445486730033, 1.5309281057469482], [30.296444596973817, 1.5308936026799738], [30.296445749815977, 1.5308586404092008], [30.296448409241748, 1.5308317483966154], [30.296452511839274, 1.5308047714596573], [30.296458058793398, 1.5307767643164043], [30.296486075453632, 1.5306611418451923], [30.296496936827488, 1.5306072347178539], [30.296504079096106, 1.5305623536686652], [30.29651801425693, 1.5304561534967194], [30.296524832997495, 1.5304100357562747], [30.296542306007485, 1.5303075832479534], [30.296556241871528, 1.5302208689218146], [30.296561340014076, 1.5301941372457695], [30.296567104063175, 1.5301698744537104], [30.29657531924031, 1.5301430455166873], [30.296582248716273, 1.530124643875674], [30.296590005551792, 1.5301067086962732], [30.29660002932188, 1.5300862920869636], [30.296614802337157, 1.530059591663168], [30.296657880894102, 1.5299869489616766], [30.29667505088902, 1.5299600455295923], [30.296690076902692, 1.5299392638376825], [30.29670548569333, 1.5299211621390374], [30.29672211705569, 1.5299055996162594], [30.296732581027758, 1.5298979331404874], [30.296740374214238, 1.5298932708323476], [30.29675444376116, 1.5298869138916806], [30.29677310665291, 1.5298818794875173], [30.296792753563317, 1.5298798529838855], [30.29680908025522, 1.5298802640999973], [30.296822880339185, 1.5298818468374287], [30.29684677095678, 1.5298871349462764], [30.296873816309468, 1.5298966410702075], [30.29690408352465, 1.5299105424223445], [30.297010879793675, 1.5299675711498155], [30.297054517713285, 1.5299889098525674], [30.297095426470754, 1.5300068073694346], [30.297160940661264, 1.5300335717031122], [30.297191585743423, 1.5300476289758713], [30.297212600029017, 1.5300587216008807], [30.297233082632825, 1.5300705898411713], [30.297265734764395, 1.5300910642167398], [30.297334036844802, 1.5301360509483988], [30.297348115092515, 1.5301442618716363], [30.297362250366017, 1.5301513947374417], [30.297383731798387, 1.5301594686507733], [30.29740388814203, 1.530163685642442], [30.297417500369495, 1.5301646997060745], [30.297426488460637, 1.530164596336347], [30.29744841708159, 1.5301619247621887], [30.297466881277387, 1.5301570925330321], [30.297484668814747, 1.53014977061873], [30.297499412347726, 1.5301408750926822], [30.297509688226427, 1.5301321103598893], [30.297519574015684, 1.5301200501932186], [30.297526790482483, 1.5301062397624612], [30.29753120202467, 1.5300899667696057], [30.29753214880543, 1.530081839068872], [30.297532379235, 1.530069932033957], [30.297531792015246, 1.530061276426275], [30.297529502255028, 1.530046131804622], [30.297525060286002, 1.530027904598065], [30.29750184388454, 1.5299582078894012], [30.297480245774345, 1.529889133182931], [30.29747227312202, 1.5298657214149352], [30.297463396802012, 1.5298425425628768], [30.297453258186213, 1.5298198609599458], [30.297444673338788, 1.5298034341201938], [30.29742869439567, 1.529777735745732], [30.297414722840703, 1.5297589009087993], [30.29739953148037, 1.5297410531875493], [30.297383245052266, 1.5297242587112208], [30.297365956832753, 1.5297086088731362], [30.29734772593172, 1.529694229364351], [30.29732858447986, 1.5296812774716824], [30.297301247804775, 1.5296663243059276], [30.297284565147002, 1.5296590273542015], [30.29726832525796, 1.529653116356348], [30.29725265141406, 1.5296483899406095], [30.297227693848438, 1.5296424895760674], [30.297186735178315, 1.5296357637101705], [30.29710792436222, 1.5296270278770125], [30.297072812930455, 1.529622104199907], [30.29704008062475, 1.5296154619666467], [30.2970047946273, 1.5296050877747147], [30.296982714583283, 1.529596745611669], [30.296960962679833, 1.5295873871878365], [30.29691738465005, 1.5295662726960315], [30.29687429196876, 1.529542660958033], [30.296810309991393, 1.5295049618591667], [30.296775886472044, 1.5294870960797053], [30.29674750311898, 1.5294754419496295], [30.296728856886848, 1.5294700457281973], [30.296715061530907, 1.529467558384503], [30.29670149424989, 1.5294665163667376], [30.296688984772388, 1.5294669288606004], [30.296676878573123, 1.5294687100869464], [30.296665290562554, 1.5294718854954157], [30.296653092949214, 1.5294771079435523], [30.296641834313064, 1.5294840179103733], [30.296635263519935, 1.5294892140576442], [30.296625110649543, 1.5294994348225242], [30.296619787081355, 1.5295061281960305], [30.296612668595422, 1.5295169971565006], [30.296606543116752, 1.5295287159625417], [30.29660162009622, 1.5295403920117563], [30.296593034619452, 1.5295674961163601], [30.2965781987771, 1.5296250121635036], [30.296572050083903, 1.5296423592614423], [30.296567138052485, 1.5296531469741803], [30.296558289903597, 1.5296677108273442], [30.296549664882882, 1.5296776316878486], [30.29654397354149, 1.5296825695835001], [30.296533267335906, 1.5296893437873829], [30.296528505283746, 1.5296915156937247], [30.296516356131512, 1.5296953275043876], [30.296505708293793, 1.5296970843695838], [30.296494691136594, 1.5296976044873745], [30.296475399270484, 1.5296957807218807], [30.296456018971472, 1.5296907161308446], [30.29643715715791, 1.5296825072779172], [30.29642229058535, 1.529673504611627], [30.296403679462607, 1.5296587224720923], [30.296387448582816, 1.529641328912167], [30.2963787955668, 1.5296291521572398], [30.29637442109287, 1.5296215689785106], [30.296369237712245, 1.5296102578633617], [30.29636458369192, 1.5295957229736514], [30.296359947870645, 1.5295709598892557], [30.296356819405162, 1.529537167014625], [30.296351603005863, 1.5294468234906835], [30.296350834309447, 1.529420310302662], [30.29635147842804, 1.5293907036914576], [30.296353680355757, 1.5293677079054953], [30.296356644114226, 1.5293494611911118], [30.296363171110997, 1.5293211543501366], [30.29637050772465, 1.5292967254622793], [30.296380047535028, 1.5292705145362135], [30.296392334096982, 1.5292423035627054], [30.29640281774131, 1.5292225056729576], [30.296412903535984, 1.5292070432909701], [30.29642408288607, 1.5291938858587815], [30.296429835667137, 1.5291886443921194], [30.296438519817094, 1.5291824143665889], [30.296452004481626, 1.5291762826075759], [30.29646231532375, 1.5291740056760201], [30.296469919326785, 1.5291734080244315], [30.29648579182604, 1.5291743779554647], [30.296502443590985, 1.5291776488231905], [30.29651975690912, 1.5291825643830645], [30.296591027661645, 1.5292060518855544], [30.296607435822597, 1.5292102406163322], [30.296623918866743, 1.529213432646961], [30.29664037651049, 1.529215395596072], [30.296660589635252, 1.529215845070166], [30.296680177974192, 1.5292139730175212], [30.296692683923958, 1.5292113563612462], [30.296710284077136, 1.52920521535908], [30.296725260382217, 1.5291968668739264], [30.296736623907076, 1.5291879435644538], [30.296742655893762, 1.529182040028144], [30.296751828365316, 1.5291709368958788], [30.29675652198411, 1.5291638920804456], [30.296763330420973, 1.5291510625698959], [30.296768513719012, 1.5291373417451124], [30.296772303019125, 1.5291202916820972], [30.296773371889834, 1.5291050166762987], [30.29677258441962, 1.5290891853407633], [30.296770431966628, 1.529074105067252], [30.296766104792322, 1.5290545585988955], [30.29676130665038, 1.5290375012622415], [30.296752161147573, 1.5290098487072512], [30.296742894008215, 1.5289846739788397], [30.296706641249664, 1.5288951098439312], [30.296694795344965, 1.528863276003387], [30.2966861748059, 1.5288344736901422], [30.296680333632036, 1.5288055944704495], [30.296678625698647, 1.528790499398911], [30.296677867763545, 1.5287754615619689], [30.296678175822525, 1.5287574871063596], [30.29667963388946, 1.528739762629627], [30.296683720006424, 1.528712279579513], [30.296695225013693, 1.5286505796212648], [30.296697862441864, 1.5286290230896562], [30.296698712881206, 1.528614637060807], [30.29669838411168, 1.528601089990029], [30.296696594877282, 1.5285885306334472], [30.29669382841954, 1.528579011935277], [30.296688800790612, 1.5285688080678237], [30.29668196257427, 1.5285602358180013], [30.29667180699426, 1.5285525413869043], [30.29666154530932, 1.5285478308807807], [30.296650055316196, 1.5285444454679757], [30.2966265813126, 1.5285406445197673], [30.29656890474338, 1.5285354482622695], [30.296544274582264, 1.5285312897852756], [30.296515805242564, 1.5285237727640464], [30.29646826807912, 1.5285069106803588], [30.29645093591467, 1.5285027063278405], [30.296440633219373, 1.5285020651875723], [30.29643489714137, 1.5285025748398777], [30.29642726358666, 1.5285045442937393], [30.296419013658657, 1.528508949375183], [30.296415613110682, 1.5285117176545215], [30.29640729392251, 1.5285219543049702], [30.296400325695465, 1.5285361843660399], [30.296387350021856, 1.5285725875311638], [30.29637911223278, 1.5285924036365686], [30.296367644281187, 1.5286158901416225], [30.296357923477228, 1.5286339041709147], [30.296329395538326, 1.5286818108535527], [30.2962805277799, 1.5287551601684437], [30.296265907538118, 1.5287782116017044], [30.296249192913315, 1.5288072230731393], [30.296236030023895, 1.5288332061884697], [30.296224649557665, 1.5288585354681135], [30.296214568977586, 1.5288834651472751], [30.296201755198595, 1.5289189349722423], [30.296193268027043, 1.5289457111478524], [30.29618577724596, 1.5289727859079814], [30.296179509579233, 1.5289990976782135], [30.29617403066881, 1.5290265843707957], [30.296169624285813, 1.529055240019646], [30.296166496046876, 1.5290901021782315], [30.296165855079824, 1.529125084070064], [30.296168184989902, 1.5291691176978377], [30.2961732807004, 1.5292124318638785], [30.296180900585636, 1.5292550804847476], [30.296188952238825, 1.5292892546392893], [30.29619922017136, 1.5293255408701076], [30.29621901832961, 1.5293898750592816], [30.296228099894243, 1.529426978550207], [30.296233995669724, 1.5294617165998854], [30.29624995226822, 1.5295740583519515], [30.296257668843385, 1.529638439576053], [30.29626161762368, 1.5296933731296962], [30.29626404523032, 1.5297454246222348], [30.296265198796238, 1.5297980293778721], [30.29626480595979, 1.52984136911926], [30.296263159891044, 1.5298758210662966], [30.296259889180664, 1.5299097016129337], [30.296254408310343, 1.5299430353199774], [30.296248858040293, 1.5299665374514715], [30.29623896954647, 1.5299965281549024], [30.29622887550751, 1.5300185596020162], [30.296214599839047, 1.5300417876796037], [30.296208034482184, 1.5300505263800415], [30.296195163897472, 1.5300653661743011], [30.2961762079643, 1.5300835419811307], [30.29615629366736, 1.5300997365372486], [30.29612775888862, 1.5301200763251206], [30.29606317796654, 1.5301633852033032], [30.296042110451655, 1.5301790243162317], [30.296020301513835, 1.5301972787342544], [30.29599786267726, 1.5302194427145994], [30.295982792943555, 1.5302371300201072], [30.29597107040732, 1.5302530647572063], [30.295956596313424, 1.5302762645583357], [30.29594451066559, 1.5302996228291004], [30.295933998868385, 1.5303239527802774], [30.29592497133504, 1.5303490853041], [30.29591748268994, 1.530374425827377], [30.29591136999022, 1.5303995828360348], [30.295906276389037, 1.5304248324130476], [30.295886472365964, 1.5305450398441753], [30.295880878264946, 1.5305705427276373], [30.295873516492637, 1.530596390392009], [30.295864447740115, 1.5306214469480532], [30.29585013387525, 1.5306529258518775], [30.29583383011159, 1.5306829391183507], [30.29581524421825, 1.5307125102820605], [30.295797354323508, 1.5307363039935713], [30.295780133254954, 1.5307559387669933], [30.295752349728197, 1.530783718839188], [30.29572598039034, 1.5308065971642715], [30.295706480397623, 1.5308203684686772], [30.295689510188904, 1.5308297193149827], [30.29567175976746, 1.5308368116975901], [30.295658766927453, 1.5308402862367825], [30.29564939792152, 1.5308419642800155], [30.29563309872132, 1.5308432684225268], [30.295609505607537, 1.530842078094087], [30.295585473695787, 1.5308377703058331], [30.29555815330279, 1.5308299248277428], [30.29552316977049, 1.5308168434519263], [30.295487868250994, 1.5308009782400323], [30.295461988437836, 1.5307879554193458], [30.295383167232917, 1.5307460378621327], [30.295342903734227, 1.5307277932031589], [30.295317239090437, 1.5307186313134495], [30.29529124743143, 1.5307117364211063], [30.295265949110185, 1.530707633070877], [30.295241469799176, 1.5307063575706825], [30.295217967786172, 1.5307077167271308], [30.295191943034855, 1.5307121751212014], [30.295167157198698, 1.5307190263090968], [30.295142679673308, 1.5307277856231247], [30.295110959498626, 1.530741150992386], [30.29506774587188, 1.530761059092822], [30.29497849348597, 1.5308052257799036], [30.29495887238272, 1.5308138972715193], [30.29494218260089, 1.5308201866880875], [30.294925594042663, 1.5308252426668598], [30.2949024577784, 1.530829971317781], [30.294886498695288, 1.5308314584356648], [30.294867361486503, 1.5308309190101612], [30.29484934039856, 1.5308275767860255], [30.294843657457363, 1.5308258145594746], [30.29483073796521, 1.5308202168264686], [30.294817229896267, 1.5308113550442528], [30.294805719044845, 1.5308002690545437], [30.294800796983445, 1.5307939838158393], [30.294793773293076, 1.5307822429134532], [30.29479050134193, 1.5307748355541189], [30.29478647368319, 1.5307613841174015], [30.294784340978072, 1.5307434752726343], [30.2947844247513, 1.530734675942158], [30.294786008423927, 1.530719223586936], [30.294790991847844, 1.530696630808612], [30.294797219223273, 1.530677425816434], [30.294806769317987, 1.5306537887257012], [30.294819742999074, 1.5306269179853662], [30.294834679040243, 1.5305998391721007], [30.29485737122688, 1.5305625447151556], [30.294938128625056, 1.5304396132997373], [30.29497016836866, 1.5303869405001522], [30.29498567594096, 1.5303588113887825], [30.29499601679927, 1.5303376053751583], [30.295003801288246, 1.530319106345689], [30.29501292794509, 1.530292268667084], [30.295019496230672, 1.5302661534198094], [30.295024797139682, 1.5302331285924196], [30.29502716774023, 1.530199529802149], [30.29502709579765, 1.5301731097056401], [30.295024606884844, 1.530137051168578], [30.295019892873633, 1.5301009030503145], [30.29501317801224, 1.5300627145226564], [30.29500217837906, 1.530008431780359], [30.29499026569475, 1.5299554203055754], [30.29498061286886, 1.5299198985171234], [30.294965884102307, 1.52987548047602], [30.294952339917693, 1.5298416979119898], [30.29493659055173, 1.5298091307523198], [30.294920930008274, 1.5297823573999316], [30.29490337567734, 1.529756965226298], [30.294884102495065, 1.5297330909138969], [30.294861479835568, 1.5297092087354716], [30.294839967166716, 1.5296895618543642], [30.294817688529672, 1.5296713373467563], [30.294749292353327, 1.5296191859116628], [30.29472762538276, 1.529600852833139], [30.29468869644609, 1.5295660304174692], [30.29467905023667, 1.5295581866116472], [30.29466736700511, 1.5295499380687387], [30.294653603213163, 1.5295423484016002], [30.294643947480807, 1.5295385206765095], [30.29463397685473, 1.5295358872579314], [30.294624978651257, 1.5295347633676355], [30.294616577754194, 1.5295349560390046], [30.294608971709874, 1.5295364736561436], [30.2946020147537, 1.5295395482877923], [30.294596703188464, 1.529543831462392], [30.29459380954937, 1.5295476766951317], [30.294591702642737, 1.5295521609465963], [30.294590717617574, 1.5295556913994484], [30.294590008255245, 1.5295635356155521], [30.294591746236875, 1.5295761292293113], [30.29459930530917, 1.5295977592106629], [30.294611252162312, 1.5296220769769566], [30.294629244718234, 1.5296539059322998], [30.294685785531716, 1.5297448594265972], [30.294701686664993, 1.5297716845919882], [30.294715140437543, 1.529795922940517], [30.294732610438068, 1.5298298433284436], [30.29474946317886, 1.5298661866872014], [30.294757367280617, 1.5298855045134532], [30.294763964046382, 1.529904001014025], [30.294771804638017, 1.5299338668782754], [30.294775532140804, 1.5299596843164496], [30.294776713960474, 1.5299768201830792], [30.29477692444688, 1.5300023222793775], [30.294776160805533, 1.5300197954714003], [30.294773783376918, 1.5300466652118416], [30.29477007278979, 1.5300746872987359], [30.29476426306793, 1.530110303317139], [30.29475777373535, 1.5301450707910405], [30.29475052512755, 1.5301787853804578], [30.294739139937278, 1.5302214595323484], [30.294717488597637, 1.5302851988075081], [30.294695268312772, 1.5303443365636995], [30.29468425222835, 1.530370507606142], [30.294671838092686, 1.530397304048028], [30.294658450125745, 1.5304237142714956], [30.294644109960768, 1.5304496732367383], [30.294618648845663, 1.530490900735913], [30.294587866316476, 1.5305349500897243], [30.294535322325277, 1.530604508866934], [30.294481972277577, 1.5306730806639985], [30.294444328989517, 1.530717955415464], [30.294414041707082, 1.5307494627784728], [30.294396217674176, 1.5307658551405368], [30.29437774022899, 1.530781275182475], [30.29436145595842, 1.5307935982815974], [30.294341823440387, 1.530807080202212], [30.294317397423292, 1.530822033599196], [30.294292329957145, 1.5308357842447509], [30.294248322109883, 1.5308567423182147], [30.294158663857978, 1.530893761872762], [30.29412132013837, 1.5309074246166268], [30.294088095282273, 1.530917666625479], [30.29404698511721, 1.5309279853690476], [30.293961954660592, 1.5309460247271676], [30.293941509047183, 1.5309519686568636], [30.293923617794277, 1.5309589541959419], [30.29390738185039, 1.5309678305935486], [30.293896812247464, 1.530975950556592], [30.293891540747676, 1.5309812179123354], [30.2938870087401, 1.5309868422698403], [30.293880888799208, 1.5309977106492938], [30.293879052332915, 1.5310027880726924], [30.293877079512402, 1.531012763434305], [30.293877066423466, 1.5310224783067685], [30.293879003758374, 1.5310329095895017], [30.29388315751327, 1.5310439039897892], [30.29388684949558, 1.5310507705568352], [30.29389273382893, 1.5310594907096569], [30.293899762422228, 1.531068030671022], [30.293916802605334, 1.5310844844989517], [30.293934663216074, 1.5310983402980833], [30.293963628993087, 1.5311173839554042], [30.294054316142986, 1.531169256535844], [30.29409788791128, 1.5311966907355101], [30.294120609064496, 1.5312128996514056], [30.294135988068803, 1.5312249873517825], [30.294153092105372, 1.5312399365858593], [30.294166778462134, 1.531253411138883], [30.294179459000123, 1.5312676607013587], [30.294192828340066, 1.5312854509748985], [30.29420281617216, 1.5313015650857462], [30.29421009120021, 1.5313155231095201], [30.29421777037453, 1.531333016964017], [30.294225686449334, 1.5313556532347044], [30.294230094006352, 1.5313712026639628], [30.294235599229523, 1.5313950775694667], [30.294242499837218, 1.5314369082729762], [30.29424605231563, 1.5314712158464325], [30.294247941149333, 1.5315152813829274], [30.294247127372408, 1.5315490682911834], [30.2942451281424, 1.5315743579063557], [30.29424265570723, 1.5315946123465443], [30.294225466677947, 1.5316945906217025], [30.294219375450755, 1.531737660967364], [30.2942141520116, 1.5317811797527234], [30.294209322596117, 1.5318269962716609], [30.294205626128733, 1.5318709128231023], [30.294202051175347, 1.5319246140061502], [30.29419993012633, 1.5319703942045648], [30.29419937322005, 1.532006278950544], [30.29420008931401, 1.532041006757964], [30.294202178839218, 1.5320775527707475], [30.29420693300309, 1.5321381643774212], [30.294208637638025, 1.532173717626554], [30.294208797813265, 1.5322192205755312], [30.29420685067121, 1.532271668573447], [30.294204216012474, 1.5323066813070005], [30.294201319908684, 1.5323339317354059], [30.29419332429, 1.5323882336839734], [30.29418228320138, 1.5324421350289872], [30.29416740677169, 1.53249749640957], [30.29415875970421, 1.5325249482783092], [30.29414610685908, 1.5325615821750453], [30.294121646048122, 1.532624938237137], [30.29409803617708, 1.5326799920843721], [30.294054237360754, 1.532776831324425], [30.294012412878995, 1.5328739315298783], [30.29399390233841, 1.5329106573721507], [30.29397998472625, 1.532933304726588], [30.293962320116638, 1.532956427182753], [30.293943481023366, 1.532975909804454], [30.29392997458414, 1.5329872043632957], [30.293921660724163, 1.5329931609849226], [30.29390678506588, 1.5330021439164778], [30.29389770249241, 1.5330067006155232], [30.293884420631557, 1.5330122126149281], [30.293867803977754, 1.5330174628127888], [30.293853619869807, 1.5330206484162128], [30.293839151429122, 1.5330228576502125], [30.29380791611141, 1.5330248069666172], [30.29376581490103, 1.5330233878806139], [30.293733327840478, 1.5330195816780454], [30.293673795762853, 1.5330096319730822], [30.293647628580445, 1.533007376446684], [30.293627087642832, 1.5330084076456398], [30.29360914097022, 1.5330123114266085], [30.293596716572914, 1.5330172009539604], [30.293589362488223, 1.533021151653198], [30.293577276437766, 1.5330297685124787], [30.293566756828504, 1.533040248104856], [30.293558949741843, 1.5330509615955341], [30.29355261830131, 1.5330629014917507], [30.293548239526068, 1.5330744887149785], [30.293543787962168, 1.53309397698506], [30.293542365848737, 1.53310803148576], [30.293542386424217, 1.5331288150425844], [30.29354379159874, 1.5331439584980648], [30.293547797600926, 1.533166755172206], [30.293552035002747, 1.533183344554599], [30.293557309425967, 1.5332000554505685], [30.29356650743579, 1.5332243995602217], [30.293576107692918, 1.5332466403444676], [30.29359976288427, 1.5332948797899844], [30.293712577793602, 1.533507093516691], [30.29374338293067, 1.5335601922879591], [30.293789985394223, 1.53363476616518], [30.29380959333169, 1.5336701677817517], [30.29382598646413, 1.533703436164202], [30.293841142178728, 1.5337374123847296], [30.293856444793516, 1.5337752539631686], [30.293868894854008, 1.5338099596495514], [30.293882653400825, 1.5338545698633725], [30.29389178663901, 1.5338904316922621], [30.293899066757945, 1.5339274623709669], [30.293904147881427, 1.5339693531168037], [30.293905460503304, 1.534005251077641], [30.293903717758866, 1.5340407637818918], [30.29390160673316, 1.534059934218032], [30.29389796188373, 1.5340834387043423], [30.29389414902435, 1.5341020123314806], [30.29389020041627, 1.5341171363222441], [30.293882679792247, 1.5341392613284734], [30.29387145158946, 1.5341633616425518], [30.293865929475952, 1.534172956534894], [30.293853512181908, 1.5341914676913575], [30.293834179164588, 1.5342152359609853], [30.293809936460935, 1.5342400291102831], [30.293785845102747, 1.534260866910101], [30.293754186734354, 1.5342843013718719], [30.293718312568, 1.5343075361644098], [30.293673317011827, 1.5343333394297027], [30.293626329734, 1.5343569902279866], [30.293581236579342, 1.5343768577934769], [30.293525820691862, 1.5343984509451376], [30.293479387060167, 1.5344145772444042], [30.293441447497024, 1.5344264117979596], [30.29340420687078, 1.5344365780877247], [30.293330536337862, 1.5344541861063625], [30.293299013860384, 1.5344623959154653], [30.293270315856137, 1.5344710774440948], [30.293244388216014, 1.5344811271039314], [30.29323351284755, 1.5344867198651513], [30.293223322194873, 1.534493382587657], [30.293213616714056, 1.5345019807714955], [30.29320897795411, 1.5345075010483233], [30.293202955903592, 1.5345176149283644], [30.293201184028725, 1.5345220146425713], [30.293198724976282, 1.5345330114684932], [30.293198710484358, 1.534542389249552], [30.29320053769184, 1.5345518235998739], [30.293206217086645, 1.5345649662625576], [30.293213029997734, 1.534575049503562], [30.293224179227856, 1.5345873207298764], [30.293236290794255, 1.5345976935839254], [30.29324846838374, 1.5346062654279502], [30.293261868896554, 1.5346142306334152], [30.29328230158312, 1.534624305925438], [30.293304145618144, 1.534633181985139], [30.2933279778458, 1.5346413050765686], [30.293353407804, 1.5346485463752675], [30.29337100214087, 1.5346527647201453], [30.29341389110904, 1.53466044306757], [30.293467696120604, 1.534665890507006], [30.293503831025603, 1.5346681027414264], [30.29354129338647, 1.5346694183786105], [30.293567956315297, 1.5346694984392493], [30.293605693830553, 1.5346683798301939], [30.29367932761229, 1.5346643021169881], [30.29374187267092, 1.5346598144484183], [30.293787239015636, 1.5346555037084677], [30.293832157303438, 1.5346497356149964], [30.293884042103937, 1.5346404564422378], [30.293929319252616, 1.5346292448499963], [30.2939744500568, 1.534615156558498], [30.294055469062965, 1.5345866790087728], [30.2940825538296, 1.5345783713553438], [30.2941017331416, 1.5345732952419981], [30.294120948298318, 1.5345689927503954], [30.294144874084907, 1.534564858926564], [30.29416270187576, 1.5345626792912657], [30.29418655886521, 1.5345611254734595], [30.29421805974866, 1.5345615352142354], [30.29423677895259, 1.534563155913978], [30.2942552509733, 1.5345656791059497], [30.294338755300597, 1.534582442662973], [30.294405218047924, 1.5345945864326214], [30.294423128049694, 1.5345984436892834], [30.29445243590965, 1.5346068231731318], [30.2944768133877, 1.5346162591417314], [30.294500380721995, 1.5346279642007712], [30.294519163869104, 1.5346394381426764], [30.294537255545954, 1.5346523562381404], [30.294560642553353, 1.5346717832794947], [30.294583000061355, 1.5346929613060094], [30.294606966533813, 1.5347178926872278], [30.294627668556625, 1.5347416062273065], [30.294647212407227, 1.5347665636068386], [30.29466566659041, 1.534792559770672], [30.294683095970207, 1.5348194285185655], [30.294699612990293, 1.5348470145554187], [30.29471522403988, 1.5348752356516255], [30.294736944683883, 1.534919415937488], [30.294759535897917, 1.5349711162112067], [30.294805975200955, 1.535084755606201], [30.294817638446634, 1.53511103140997], [30.2948301338189, 1.535136838344349], [30.29484380006115, 1.5351620159802633], [30.294854360152712, 1.5351793481565301], [30.294867677564785, 1.5351991410367887], [30.294889256896944, 1.5352278740143477], [30.294910113569635, 1.5352528619959038], [30.294934793736324, 1.5352793893510213], [30.294960930266697, 1.5353046271587145], [30.294994847840144, 1.5353341693167075], [30.29501926278502, 1.5353538100552704], [30.295055047703027, 1.5353808730024425], [30.295091391023814, 1.5354066253766196], [30.295162247731543, 1.5354544316161696], [30.295183508009316, 1.5354705330192546], [30.295197579945548, 1.535482306427053], [30.29521447374696, 1.5354980570499603], [30.295232400356188, 1.5355172810489655], [30.29524519910591, 1.5355332099088033], [30.29526161255533, 1.5355574701730232], [30.295271075964713, 1.5355742804215047], [30.29528259753787, 1.5355989637170857], [30.295291041843186, 1.5356213946578023], [30.295298214886994, 1.5356443083685545], [30.29530629467316, 1.5356752536165956], [30.295314456147956, 1.5357126451443626], [30.295322219748694, 1.5357543703667962], [30.295327857801375, 1.5357911052966244], [30.295330093094318, 1.535812359828513], [30.295330879467247, 1.5358304142785995], [30.29533033510679, 1.5358484001583563], [30.295328731506324, 1.5358632235049232], [30.295325358820552, 1.5358809391856183], [30.295320502050174, 1.5358984234323056], [30.295314280655905, 1.5359156538043053], [30.295306784471745, 1.5359326024010158], [30.295292452795152, 1.5359588297312274], [30.295280192166747, 1.5359776926427986], [30.29526680775924, 1.5359961555849477], [30.29515617777607, 1.5361335296691596], [30.295132542521277, 1.536160795247151], [30.29510798308488, 1.5361874668110458], [30.295011771303184, 1.5362862192417646], [30.294991053984727, 1.5363096197430628], [30.29497685836023, 1.5363276288816619], [30.294961099011314, 1.5363501771759909], [30.29494111120567, 1.5363832889834734], [30.294923486468388, 1.5364174611446284], [30.294894683363754, 1.5364781872625035], [30.294880098984905, 1.5365054074309443], [30.294859784773116, 1.536538861323225], [30.29483317675667, 1.5365764362459635], [30.294806366957374, 1.5366095203680985], [30.294779688641686, 1.5366380246474298], [30.294756763767378, 1.536658803365602], [30.294725897548375, 1.5366827765157653], [30.294702266192978, 1.5366990881899119], [30.294678047554786, 1.536714685182378], [30.29459130834938, 1.5367680010616906], [30.29449320744195, 1.5368315776330042], [30.294427286161625, 1.5368757374347897], [30.29440141844737, 1.5368909138953288], [30.294384404302416, 1.5368994349725402], [30.29436253807829, 1.5369088653193461], [30.294340053426968, 1.5369173550173378], [30.29428738075381, 1.5369346725136652], [30.294120162778395, 1.536979553460284], [30.2940683560746, 1.536994491676001], [30.29401713173846, 1.5370104825513935], [30.293983642990106, 1.5370219440618105], [30.29395952324471, 1.5370310362472468], [30.29393602384078, 1.5370409750966665], [30.293911204256645, 1.5370531615966856], [30.293891430837565, 1.5370643423786419], [30.293865541182747, 1.5370805426978809], [30.293817894404963, 1.5371122382900029], [30.29375992892072, 1.5371495752277529], [30.29373198742418, 1.5371692901645644], [30.293711488645748, 1.5371860016272847], [30.293695209305298, 1.5372007402517043], [30.293633296689016, 1.5372626819820525], [30.293602480763962, 1.5372902094349608], [30.29357483300913, 1.5373119815834912], [30.293534180975662, 1.5373419988526893], [30.293508576330645, 1.5373600593563261], [30.293479120098382, 1.5373789246671732], [30.293452699799722, 1.537393644918024], [30.2934284950189, 1.5374053712927174], [30.293397815910794, 1.5374183907451708], [30.293309220157884, 1.5374535060832335], [30.293212762922682, 1.5374982783630722], [30.293177395922633, 1.5375137499142613], [30.293149675628623, 1.537524678335162], [30.293129381366317, 1.537531592918959], [30.29311214476752, 1.537536358768807], [30.293087930185422, 1.5375409024339708], [30.2930641151074, 1.5375426767377058], [30.293040957640667, 1.5375413765557606], [30.293021336412796, 1.5375372567949395], [30.29300619784937, 1.53753178448127], [30.29299167847784, 1.5375245082494773], [30.292969760032822, 1.5375098347426865], [30.29294897597403, 1.5374921316415866], [30.292921829674693, 1.5374644543057425], [30.292903000517523, 1.5374424918058978], [30.292852716256057, 1.5373788127623715], [30.292811959401806, 1.5373295736126884], [30.292795413512376, 1.5373071495240747], [30.2927843804234, 1.5372896685365032], [30.292772648125915, 1.5372676563595897], [30.29276156329618, 1.5372420672227567], [30.29275441783666, 1.5372215447935371], [30.29273665727822, 1.537161830285947], [30.29272463167365, 1.5371317150751755], [30.292716642780242, 1.5371156441481395], [30.292707597349597, 1.5370999731197053], [30.29269570435765, 1.5370821991389019], [30.292684020233285, 1.5370668509817693], [30.29266398863748, 1.5370442046545927], [30.292641934286724, 1.537023370394909], [30.29262337045081, 1.5370082059470431], [30.292576049112224, 1.5369726649988606], [30.292555161484312, 1.536955918805117], [30.292532493701724, 1.536935883547726], [30.292510825446303, 1.5369143701941717], [30.292480672595055, 1.536880360360081], [30.29242070787135, 1.5368018581009322], [30.292387562728063, 1.536763020450448], [30.292273212787936, 1.5366421145191345], [30.292200868814945, 1.5365697182064506], [30.292146487515453, 1.5365106700189124], [30.292122443737313, 1.5364858758905091], [30.29210548327017, 1.5364703520155014], [30.292089436721163, 1.536457863059102], [30.292081159819492, 1.5364522883576914], [30.292057053898954, 1.5364390408443604], [30.29203190262195, 1.5364287236297467], [30.29200492437872, 1.5364209109727804], [30.29199120451452, 1.5364183983211872], [30.291978086331305, 1.5364172871866895], [30.291965690735825, 1.5364178325695312], [30.291958824141116, 1.536419013086866], [30.291954165594944, 1.536420273237594], [30.29194367056428, 1.536424756699239], [30.291935740361787, 1.5364298109636494], [30.29192835493612, 1.5364358166252758], [30.29191990532003, 1.5364440205565022], [30.291893582055415, 1.5364722748606199], [30.291877764110144, 1.536486456458935], [30.291864060616987, 1.5364966056947058], [30.291824379285774, 1.5365231322234112], [30.291810370636746, 1.536534579698315], [30.291799762747576, 1.536545247094477], [30.291789536678642, 1.5365579121747182], [30.29178285827441, 1.536567949279017], [30.291774679222698, 1.5365830624084336], [30.29176886915008, 1.5365966784048035], [30.2917621819298, 1.5366172717221234], [30.291758529071497, 1.5366321131902667], [30.291754277407943, 1.5366546706649133], [30.291749405529316, 1.5366940923646286], [30.29174318391645, 1.5367798644779678], [30.29173956972096, 1.5368138980621757], [30.29173225498292, 1.5368557187001268], [30.291723722204605, 1.5368885720857233], [30.291717512277376, 1.5369073694364703], [30.291710439841825, 1.5369258042021543], [30.291696120313713, 1.536957329878785], [30.291657349035646, 1.5370298274123166], [30.291641179131187, 1.537058204912351], [30.29163079162885, 1.537074975329089], [30.2916112395396, 1.5371036431175835], [30.291569037488745, 1.5371608328525797], [30.29151610148818, 1.537234648863733], [30.291489204366652, 1.5372679026236509], [30.291464951220757, 1.5372945066549062], [30.291432411218526, 1.5373262819658657], [30.29140364557473, 1.5373508405594207], [30.291356833032154, 1.537386129328183], [30.291297469243027, 1.5374278961098184], [30.29121380133076, 1.5374847075028664], [30.291180938621437, 1.537506062626274], [30.291151560836298, 1.537523274178254], [30.291127169773755, 1.5375353409616928], [30.291098689673724, 1.537546384944226], [30.291082410240616, 1.5375512396519218], [30.291065798791898, 1.5375551929378126], [30.291033659783658, 1.5375602370417136], [30.290999817267462, 1.5375624566868955], [30.290955061510157, 1.5375618410096112], [30.290892180576062, 1.5375571327732083], [30.29082887656888, 1.5375496767216432], [30.290786368478674, 1.537541942692346], [30.290742497448058, 1.5375304908729546], [30.290697843203034, 1.5375149053951374], [30.290660226838, 1.5374990333981227], [30.290563971454027, 1.5374551185122975], [30.290534347694585, 1.5374431002001407], [30.29050884683548, 1.5374344453356386], [30.290487798801593, 1.5374302884938524], [30.290472874608163, 1.537430737543739], [30.290464121253756, 1.5374334166969688], [30.290460304862997, 1.5374355129412773], [30.29045607202195, 1.5374388620964123], [30.29045254586671, 1.537442945965468], [30.290450500576036, 1.5374462500194155], [30.290447404073706, 1.5374542746043356], [30.29044601828349, 1.5374629719266562], [30.290446120358734, 1.537473169498157], [30.290447031596454, 1.5374804590676534], [30.290450593972757, 1.5374960634275632], [30.290461724410527, 1.5375281656116562], [30.290482294576947, 1.5375751323012383], [30.29054355957821, 1.5377032976585212], [30.290595693076348, 1.5378071741411028], [30.290607668689773, 1.5378327345645588], [30.29062064915188, 1.537866831796043], [30.29062789102897, 1.5378906149020615], [30.290634152810988, 1.5379147085348834], [30.29064685464332, 1.537974620738597], [30.290654379938747, 1.5380214442472582], [30.290658109212842, 1.5380613368847535], [30.29066190281942, 1.5381363449925467], [30.290664571316146, 1.5381622089164655], [30.29066683156315, 1.5381771365461725], [30.290674707447998, 1.5382122755583567], [30.290686768292794, 1.538253544351441], [30.290693945139, 1.5382811780782006], [30.290697560443824, 1.538298953217891], [30.290700858326236, 1.5383213395747368], [30.29070344759689, 1.5383544755383216], [30.290703960333435, 1.5383843627272982], [30.29070278389321, 1.5384135889533024], [30.290701939695634, 1.538420745634435]]]}}]}