{"type": "FeatureCollection", "name": "Nyamukau site 2", "features": [{"type": "Feature", "properties": {"OBJECTID": 1272, "fid_1": 10785.0, "ID": 10784, "ELEV": 1356.0, "Shape_Leng": 9093.51615355, "area": 226859.917, "Name": "Nyamukau site 2"}, "geometry": {"type": "Polygon", "coordinates": [[[30.29418646432338, 1.5355318332360217], [30.2960451825393, 1.5342010927782475], [30.296025932740527, 1.5342011918943523], [30.29600183969711, 1.534199769517766], [30.295977246716504, 1.5341967252451214], [30.295954173472907, 1.5341919812163216], [30.295931875055967, 1.5341852030137688], [30.29590770991056, 1.5341747009491533], [30.295888785107408, 1.5341637383343298], [30.29587087916746, 1.5341509135619487], [30.29586231312464, 1.534143870877219], [30.295845980800898, 1.5341286315816667], [30.29582361521446, 1.5341031310916686], [30.295812939430355, 1.5340885189416185], [30.295801781354278, 1.5340711055744214], [30.295792768691342, 1.534055027009155], [30.29578452992754, 1.5340383665346264], [30.29577430425868, 1.5340142858636887], [30.29576265571713, 1.5339812792264311], [30.295754846718186, 1.5339556228465998], [30.2957256147741, 1.53385177083192], [30.295714305142763, 1.5338163246061585], [30.295701446239654, 1.5337803558716472], [30.295687044623154, 1.5337450774183432], [30.295670572303393, 1.5337097529530062], [30.295651264689738, 1.5336732735521814], [30.295634642648736, 1.5336449038649826], [30.295616982346754, 1.5336173977097909], [30.295600341976133, 1.5335936116272744], [30.295581474669238, 1.5335690518458502], [30.295561364980617, 1.5335455767460737], [30.295544897891673, 1.5335282488104975], [30.295529578937384, 1.5335133777210186], [30.295469366080095, 1.5334598194524887], [30.295447027318875, 1.5334387029187018], [30.295422384971648, 1.5334127793231624], [30.29540111406892, 1.5333872540357776], [30.295377827910617, 1.5333547160935084], [30.29535769449396, 1.5333215378164984], [30.295341354283064, 1.5332904203099305], [30.295322221068233, 1.5332480724408304], [30.295308726361167, 1.5332128394377884], [30.295297926678636, 1.5331789057861398], [30.29529088777443, 1.5331499717332024], [30.29528774430381, 1.5331317913820524], [30.295286006701037, 1.5331167740026292], [30.295284940071166, 1.5330987562503082], [30.29528496544679, 1.5330735463422371], [30.295290555586842, 1.5329947597367524], [30.295290609825752, 1.5329708765139738], [30.2952896548261, 1.5329569247024286], [30.295287113857853, 1.5329373497872647], [30.2952796429796, 1.53289700401946], [30.29527531808191, 1.532869266319538], [30.295273039518243, 1.5328466769564304], [30.29527165878043, 1.532815634512768], [30.295272160206604, 1.5327838904713924], [30.295273813071187, 1.532759838480429], [30.295276636974858, 1.5327357355633087], [30.29528102206021, 1.5327098199783737], [30.295288236843863, 1.53267807091799], [30.295298250401718, 1.5326450918497037], [30.2953093168719, 1.5326160280949617], [30.29534429961758, 1.532538185281066], [30.295362291421895, 1.5324940537067027], [30.29538024115886, 1.5324412265630845], [30.29539252754361, 1.5323953480869155], [30.295400004260145, 1.5323566597517693], [30.295406178682374, 1.532312416451795], [30.29540931742787, 1.5322792849468396], [30.295415654573667, 1.5321891007619337], [30.295422025449163, 1.5321357148582357], [30.295453987602915, 1.5319417312758972], [30.29546829868727, 1.531847381167145], [30.29547319740615, 1.5318214599010584], [30.295478668638527, 1.531799437071351], [30.29548671231985, 1.5317754935080405], [30.295496773774484, 1.5317529839880286], [30.29550842571775, 1.531731783256015], [30.295531463456463, 1.5316946645518326], [30.295544545362496, 1.5316753173410822], [30.295556999867497, 1.5316593157776683], [30.29557308645147, 1.5316428208836839], [30.295585949477367, 1.5316325954611425], [30.29560628346264, 1.531620457335816], [30.295619246981513, 1.5316145915465214], [30.295632874887552, 1.5316095399419334], [30.29564707660441, 1.5316052066134704], [30.295670176169253, 1.531599687171827], [30.295709122040673, 1.5315931151570308], [30.295752600325994, 1.5315884747099195], [30.295796270686957, 1.531586773377202], [30.29583860142512, 1.5315885134845244], [30.295882075445753, 1.5315937189721527], [30.2959168713666, 1.5316003168991432], [30.295945438185132, 1.531607442813566], [30.295980483914818, 1.5316182035559527], [30.296015923669493, 1.5316312656502713], [30.29604178910919, 1.5316421584202093], [30.296072694035264, 1.5316566471376423], [30.29619308402401, 1.5317179136278178], [30.296221531675233, 1.5317305619777846], [30.296241735100576, 1.5317380405604166], [30.296261860032544, 1.5317436655292804], [30.296284813457024, 1.5317472779090395], [30.296306702397594, 1.5317476048454137], [30.296328950924487, 1.5317447565928557], [30.296349694361002, 1.5317390949784737], [30.29636947786747, 1.5317305547237299], [30.29638290647963, 1.531722598327375], [30.296401651529628, 1.5317079196410408], [30.296418796335946, 1.53169040036031], [30.29643406711284, 1.5316713920913205], [30.296447964918787, 1.531651625670327], [30.296484797043423, 1.5315941430176359], [30.296505019408695, 1.531564326306728], [30.2965229088894, 1.5315408832276678], [30.296546567553055, 1.5315141697094734], [30.296572481377524, 1.5314893541395083], [30.29658898836939, 1.53147560613832], [30.296606227049445, 1.5314627112668955], [30.296638292230618, 1.5314420804659594], [30.296671184113688, 1.5314245893075344], [30.296706297789413, 1.5314091108262406], [30.29672331641756, 1.5314026971000252], [30.29674971106231, 1.5313940359980855], [30.296793141072023, 1.5313828019686004], [30.296831183224413, 1.5313758094497543], [30.296865932295454, 1.5313718094599855], [30.29691826139529, 1.5313691503094868], [30.296992604902062, 1.531368460285781], [30.29706892608934, 1.5313696750863484], [30.297088375568833, 1.5313689966928588], [30.297099084142843, 1.5313675128371012], [30.297107881220665, 1.5313650568701602], [30.297114800904215, 1.5313616460059016], [30.297121062456483, 1.531356011171869], [30.297124586397405, 1.5313493769701356], [30.2971257911612, 1.5313424822655397], [30.29712566888343, 1.5313383051485825], [30.297123417774525, 1.5313281590152175], [30.297116042938494, 1.5313121277232493], [30.297105792359396, 1.531295687013129], [30.297053268919612, 1.531219843992349], [30.29702598203044, 1.5311766425949114], [30.296997624203616, 1.5311259887261823], [30.296984329010705, 1.5310998653878114], [30.296968063062046, 1.531065313866557], [30.2969429916903, 1.5310054905843917], [30.296915031143495, 1.5309308987755568], [30.296905308160387, 1.5309004647461355], [30.296900215549414, 1.5308812173306154], [30.29689606142017, 1.5308619024243506], [30.29689130029022, 1.5308310924236816], [30.296883099775126, 1.530758797636873], [30.296877379507343, 1.5307173072445626], [30.296871512430556, 1.5306833301349945], [30.296856885637215, 1.5306105346705678], [30.29685346033363, 1.5305879058720977], [30.29685139097214, 1.5305638590617525], [30.296850966511116, 1.5305478646131148], [30.29685247616466, 1.5305162248311843], [30.296856043763977, 1.530491227239176], [30.296863285631417, 1.5304614500540408], [30.296872249804107, 1.5304374335125321], [30.296880186544502, 1.530421407199699], [30.296889466420723, 1.5304062998596262], [30.296895508710293, 1.5303979147457891], [30.2969088149798, 1.530382236849558], [30.29692134813992, 1.5303700960078552], [30.296929193943665, 1.530363577541825], [30.296943446769117, 1.530353571644218], [30.296959461013447, 1.5303446280366397], [30.2969833946588, 1.530334929936516], [30.29700496599641, 1.5303292946428426], [30.297020749596754, 1.53032669119159], [30.29704463832581, 1.530324891484479], [30.297069120533042, 1.5303253156640446], [30.297095933947872, 1.5303278656231944], [30.297122182573283, 1.5303318138132942], [30.29715945893318, 1.5303389923103041], [30.297193729973966, 1.5303466920512376], [30.29722714593031, 1.5303552691162725], [30.297261417318385, 1.5303655607067619], [30.297308835526035, 1.5303828013616319], [30.297399129252486, 1.5304206866187313], [30.297436242251482, 1.5304349834575284], [30.297479594504363, 1.5304492556790117], [30.297522777586966, 1.5304609403546645], [30.29758401195492, 1.5304741191779987], [30.297611575288, 1.5304787522421757], [30.297640185092078, 1.5304824178530878], [30.297658293774337, 1.5304839708145972], [30.297685017441605, 1.5304850584488037], [30.29773108896702, 1.5304841544441035], [30.297766723984015, 1.5304818879537387], [30.297810911082536, 1.5304777589138732], [30.297864677331496, 1.5304712345318594], [30.2980007059368, 1.5304529821781356], [30.298045279848424, 1.5304483177199468], [30.298160565905224, 1.5304378932159346], [30.29821430210044, 1.5304317149056883], [30.298258964459855, 1.5304252666223663], [30.298295692111942, 1.5304188823781721], [30.2983868535891, 1.5303999576509075], [30.298449392417858, 1.530385460963803], [30.298502594477906, 1.5303719853775493], [30.298545776554356, 1.5303601237669942], [30.298587568900647, 1.5303472608844852], [30.298621044825342, 1.5303352324267256], [30.29864678199373, 1.530324548821765], [30.29867755621763, 1.530310091366913], [30.298755850936438, 1.530271396003363], [30.29878241276418, 1.530259751887883], [30.29880843226572, 1.5302494951890688], [30.298850767271826, 1.530234981896701], [30.29888631357943, 1.5302246938968405], [30.298929844592834, 1.530214576880658], [30.29896511981882, 1.5302085052660408], [30.298991003846922, 1.5302053253784165], [30.29901672474214, 1.5302033399940649], [30.2990422086161, 1.5302027514513978], [30.299059326394907, 1.5302032222997333], [30.299083218488278, 1.5302052208805739], [30.299099771675895, 1.5302076493622352], [30.29911601653809, 1.530211047138648], [30.299131024765863, 1.5302152449420454], [30.29915868096202, 1.5302260676450048], [30.299184991767504, 1.5302399224123395], [30.299266959995162, 1.5302924833498042], [30.29929126530694, 1.5303065669268827], [30.299308099730514, 1.530315322671778], [30.299332112934803, 1.5303260286971587], [30.29934844461226, 1.5303318132946468], [30.29936253386511, 1.5303355616911447], [30.299382126267624, 1.5303383772010701], [30.299393579144336, 1.5303384423287325], [30.29940498447233, 1.5303370370521325], [30.299419531584626, 1.5303322694209582], [30.299429521531014, 1.5303259624082943], [30.29943454896959, 1.5303212640426367], [30.299440869525494, 1.5303129687239814], [30.299447373177248, 1.5302990091530249], [30.2994511602806, 1.530283001031566], [30.29945238819044, 1.53026477917937], [30.29945179696164, 1.530252146304496], [30.29945013933234, 1.5302391849330619], [30.299447374726796, 1.5302260278596982], [30.299443552154333, 1.5302129787947714], [30.29943545959422, 1.5301927931037906], [30.29942430438698, 1.530172291749177], [30.299409223931622, 1.5301511817377635], [30.29939697290678, 1.5301373538319547], [30.299379612947074, 1.5301208742772374], [30.299361788224395, 1.530106231385771], [30.299307488991484, 1.5300650245595404], [30.29929607880982, 1.5300552427479204], [30.299282902285274, 1.5300425894033478], [30.29927254276681, 1.5300313602691833], [30.299256617865375, 1.5300119554039469], [30.29921164173907, 1.5299505171929775], [30.299187613168733, 1.5299198038177786], [30.299165749141498, 1.5298945199931782], [30.299144990651676, 1.5298727340421725], [30.299120785423135, 1.5298497182860573], [30.29910471904065, 1.5298357346286655], [30.299081232755057, 1.5298173016174619], [30.299062437924903, 1.5298043212403483], [30.299043775712274, 1.529793003866228], [30.299016917652217, 1.5297794556777509], [30.298999805316125, 1.5297724862313182], [30.29897435207055, 1.529764391933009], [30.29895825860042, 1.5297605741265925], [30.298933691212603, 1.5297564337979663], [30.29891708513356, 1.529754655025136], [30.298891919719722, 1.5297533579274323], [30.298874014681992, 1.5297533876477734], [30.298847498154085, 1.529754674363781], [30.298821384183977, 1.5297571897374513], [30.298794524229876, 1.5297609449648235], [30.2987399252678, 1.529771264855138], [30.298677712691813, 1.529786262657396], [30.298632373222777, 1.5297991906514767], [30.29855687439871, 1.5298224866781822], [30.298493628179937, 1.5298411224163402], [30.298446519700587, 1.529854031892838], [30.29840983394028, 1.5298628255123194], [30.298365621424505, 1.529871472223198], [30.298320709992907, 1.5298781922319502], [30.298276721345847, 1.5298830391066074], [30.29822304974249, 1.5298871272348757], [30.298177425506186, 1.5298886716699605], [30.298141807747346, 1.5298879116698278], [30.29810753877048, 1.5298849980220015], [30.298072790956446, 1.5298793834698972], [30.29803779107331, 1.529870688741495], [30.2980027737865, 1.5298586818802018], [30.297968000558498, 1.5298432448313353], [30.297934644396133, 1.529824907755121], [30.297908638404067, 1.5298078967103994], [30.297889307434023, 1.5297935347813953], [30.297863547785827, 1.5297719856000418], [30.297839334753892, 1.529748778258566], [30.297823032263963, 1.5297311776465186], [30.297801879225563, 1.5297053814320318], [30.297782646765484, 1.5296783251656543], [30.29776664482882, 1.5296523357632683], [30.29774831210582, 1.529616709819967], [30.29773434204131, 1.5295830495637088], [30.297723880903526, 1.5295533032217188], [30.297698760051656, 1.5294755447811954], [30.297668424785996, 1.529386145325571], [30.29765529481706, 1.529351384511958], [30.297643588758014, 1.529324035954449], [30.29762001481247, 1.5292759465882408], [30.297596002246557, 1.5292332003249935], [30.29758527583689, 1.52921593935679], [30.297568602364304, 1.529191256785209], [30.29754381829399, 1.5291593785075972], [30.297519410198912, 1.529132747667332], [30.29749685195956, 1.5291111383967155], [30.297471120883543, 1.5290890090843332], [30.29744892600434, 1.529071964931348], [30.29742496504028, 1.5290554336566002], [30.297393620153898, 1.529035850219592], [30.297189772993196, 1.5289178144922217], [30.29714139463731, 1.5288878330334434], [30.297109733257308, 1.528864991314434], [30.29708455806657, 1.5288435630919022], [30.29706435167449, 1.5288233819664436], [30.29704886971322, 1.5288045398068506], [30.297038353441966, 1.528787993047098], [30.297030269043848, 1.52877062970251], [30.29702552362311, 1.5287552099585873], [30.297023182843677, 1.5287420769455091], [30.297022281843915, 1.528728699043826], [30.297023063802776, 1.5287123464447923], [30.297025719147193, 1.528695846203957], [30.29703087013492, 1.5286763659696856], [30.297037731119886, 1.5286567017377628], [30.2970458307026, 1.5286368185694852], [30.297084601769228, 1.528551764150037], [30.29711793120919, 1.5284715873973431], [30.297128103555472, 1.5284493806954886], [30.297142808590955, 1.5284217113694192], [30.297153103721648, 1.52840471924667], [30.297164167942892, 1.5283881139836644], [30.297183250598305, 1.528362649840661], [30.297198560511347, 1.5283446013044861], [30.29721484655504, 1.5283272552860339], [30.297237082304864, 1.5283058871489328], [30.297257642921004, 1.5282876997660726], [30.297331543997693, 1.5282249862379373], [30.297355593253553, 1.528205394382393], [30.297384220995642, 1.5281839286028402], [30.297406650018118, 1.528168855066151], [30.297424577429304, 1.5281580901528817], [30.29744829366598, 1.528145569428186], [30.29747107611305, 1.528135108889842], [30.297497516234838, 1.5281245101978027], [30.297528995312714, 1.5281143498633407], [30.29759676778909, 1.528097451326713], [30.29761763159234, 1.528090297752758], [30.29763034797073, 1.5280838514062578], [30.29763708733042, 1.5280788533706973], [30.297643056797, 1.5280719556578488], [30.29764533699457, 1.5280674815497441], [30.297646367576682, 1.5280641373079693], [30.297646944943367, 1.5280555527614859], [30.297646173982216, 1.5280501990901074], [30.297643285613432, 1.5280405003934676], [30.29763753244776, 1.5280273856461137], [30.297616207398523, 1.5279847422195239], [30.297604777946006, 1.5279580727147986], [30.297596440996944, 1.5279329705517637], [30.29759238447501, 1.5279167067055828], [30.297589545887302, 1.527901668030109], [30.29758744592743, 1.5278862435008798], [30.297585511206517, 1.5278614765917422], [30.29758525897415, 1.5278204648538902], [30.29758734333477, 1.5277858905148607], [30.297597777418357, 1.5276771562786504], [30.297599015418, 1.5276472530655467], [30.29759842844012, 1.527626899792188], [30.29759706847115, 1.5276143057271283], [30.297594744547343, 1.5276027614600995], [30.297591297438288, 1.5275924963327037], [30.29758896243956, 1.5275876548941638], [30.297586238964165, 1.527583250360971], [30.29757868281325, 1.527575022422582], [30.29757151737492, 1.5275703149427455], [30.297563004073215, 1.527567031815839], [30.297553739625624, 1.5275655280531102], [30.297544483770878, 1.5275657702755168], [30.29753433312871, 1.5275677627612785], [30.297527440014324, 1.5275700503678595], [30.297515583216093, 1.5275756184940663], [30.297508643736556, 1.5275797966101374], [30.29750173941144, 1.5275845865845827], [30.297488130751326, 1.527595811544806], [30.29747816538867, 1.5276054686573688], [30.297463722262474, 1.5276211912451212], [30.29740785019443, 1.5276874331596682], [30.2973653260786, 1.5277326282245007], [30.297266627519193, 1.5278352427500677], [30.297243370417817, 1.5278568933688745], [30.297227195119785, 1.5278704231540563], [30.29721243325483, 1.5278817975659806], [30.297189623100188, 1.527897904468547], [30.29715282621289, 1.5279209423016542], [30.29712220687622, 1.5279372796966786], [30.297080796918998, 1.5279560994754406], [30.297045817332652, 1.5279692665405546], [30.297017059527253, 1.5279777042234577], [30.29698934563642, 1.5279829079357494], [30.29696481768532, 1.5279846165073694], [30.296930578922677, 1.5279834407756132], [30.29689318921647, 1.5279793212731019], [30.29686062630014, 1.527973677899868], [30.296823302933042, 1.527964625112316], [30.29680454295901, 1.5279611446415649], [30.296788979241402, 1.5279602781431072], [30.29677570094351, 1.527961530131924], [30.296767958165677, 1.5279632355684614], [30.29675261382422, 1.5279686158104826], [30.29673315426779, 1.5279788148568192], [30.2967145862724, 1.5279912788327856], [30.296666271529787, 1.5280267470790954], [30.296642426816128, 1.5280414835300755], [30.29662645343521, 1.5280500937454105], [30.296604016594706, 1.5280606595376043], [30.296586619058935, 1.52806779308835], [30.29656870336875, 1.5280742219899772], [30.296543961677354, 1.52808169325889], [30.296519480532773, 1.5280876249311015], [30.29648645413841, 1.5280935656552748], [30.296461141327725, 1.5280967318155854], [30.29642857901924, 1.5280992236556905], [30.296403344625713, 1.5281000041133481], [30.2963784221172, 1.5280998405863708], [30.29634630539178, 1.5280986006571013], [30.296281193079803, 1.5280944740230986], [30.29626300926575, 1.528094148233686], [30.296247691947418, 1.5280951590528888], [30.296235006785697, 1.5280974781686378], [30.296219465383476, 1.5281031825857188], [30.296209739879398, 1.5281091736208492], [30.296203912954727, 1.528114110446099], [30.296196245815086, 1.5281228278789232], [30.29619012037503, 1.528132376873572], [30.296182395160386, 1.5281494698386744], [30.29617642446746, 1.5281688297305251], [30.296171893754945, 1.5281892180645658], [30.29616533373412, 1.528233889288153], [30.29615195562515, 1.5283694201441367], [30.296136388293846, 1.5285048831541483], [30.29612996128933, 1.5285501699712216], [30.296124939433778, 1.5285769640968048], [30.29611637286162, 1.5286140912929869], [30.296082769336728, 1.5287324250555812], [30.296070079770672, 1.5287855969510076], [30.296059715620142, 1.5288383443381843], [30.296050274377283, 1.528892701502574], [30.296042244034684, 1.52894692580221], [30.296036819945964, 1.5289923051598298], [30.29603274735512, 1.5290383775709482], [30.296030769982526, 1.529074237075953], [30.29602965492913, 1.5291192161310485], [30.29602986516989, 1.5291643007939026], [30.296032601981246, 1.5292376378024617], [30.296044096316034, 1.5294397350931273], [30.296045678828396, 1.529494728894775], [30.296046040043016, 1.5295490325183703], [30.296045031810937, 1.5296040646040145], [30.2960431597506, 1.5296397127732784], [30.29603881678006, 1.5296836828045162], [30.296033240719073, 1.5297191735463012], [30.29602765642818, 1.5297454635830459], [30.296020528968675, 1.5297720941683486], [30.296012381748994, 1.529797009117254], [30.29600642571351, 1.5298125291428946], [30.295998313908573, 1.5298306789464768], [30.295989161305357, 1.5298481369929338], [30.295979780360817, 1.529863646345835], [30.295966728140733, 1.5298822661354947], [30.295952501921583, 1.5298997159350056], [30.2959388971328, 1.5299142800659764], [30.295924499944775, 1.5299277099358737], [30.295907491375626, 1.5299411681212245], [30.29589227310606, 1.5299512712875705], [30.295876492561813, 1.5299600488979908], [30.295860235980125, 1.5299674766617228], [30.295839528155597, 1.5299748427457494], [30.295815576687357, 1.529980868122473], [30.295798532221177, 1.529983559433939], [30.29577442679651, 1.529984888926647], [30.29575745171617, 1.5299838055205475], [30.295740588475653, 1.5299808985654382], [30.295717018720023, 1.5299739724245225], [30.295697663497165, 1.5299661054462617], [30.295671603248902, 1.5299530309030944], [30.295636330456357, 1.5299314380270792], [30.295601560642478, 1.5299068951707309], [30.295576595707317, 1.5298875574879933], [30.295511151919882, 1.529834077708218], [30.295484984024732, 1.5298144691944773], [30.295451165426996, 1.5297911656345018], [30.29540269577061, 1.5297610258790362], [30.295301354026446, 1.5297025870676348], [30.29522435785434, 1.5296561235162598], [30.295169226597846, 1.5296212479966835], [30.295132776496917, 1.5295954098072646], [30.295097860391905, 1.5295672347602063], [30.29506199372938, 1.5295344342159756], [30.29503059587605, 1.5295020071551642], [30.295006757731095, 1.5294742275369488], [30.294986575043385, 1.5294480756245052], [30.294961620098903, 1.5294121783581225], [30.294945797266337, 1.5293873532063247], [30.29490198223704, 1.529315375730197], [30.294881424697753, 1.5292838037888072], [30.29486528382862, 1.5292612483590846], [30.2948445982883, 1.5292357989011856], [30.29482702533774, 1.5292173797494424], [30.294804283401167, 1.5291976716723679], [30.294781878617307, 1.5291826551890029], [30.294760184983488, 1.529171982844855], [30.294738100141938, 1.5291646437953073], [30.294716573173524, 1.5291607097340414], [30.294694887891083, 1.529159857127124], [30.294673201438346, 1.5291620888849318], [30.2946536915998, 1.529166552860167], [30.294638347996482, 1.529171350169354], [30.294576815436006, 1.5291942046554967], [30.294544893818383, 1.529204262212129], [30.294502836713736, 1.5292142608151973], [30.294477663672566, 1.5292184139530047], [30.294460334547846, 1.5292204063315955], [30.29442721643117, 1.5292221717211745], [30.294393228793204, 1.529221288133266], [30.29435770623489, 1.5292177493012675], [30.294322586989434, 1.529211967970179], [30.294278865338377, 1.529201654454621], [30.294242836876037, 1.5291905066374487], [30.29419707109144, 1.5291732852724547], [30.294142829390523, 1.5291494849793899], [30.29408048213594, 1.529118793545138], [30.293965256776914, 1.5290582179649121], [30.293849789010018, 1.529001914826054], [30.293732112136723, 1.5289363594105385], [30.293663762646155, 1.5289007595453163], [30.293619061399827, 1.528878921577949], [30.293586152744133, 1.5288640454012103], [30.293566343314602, 1.5288560757393885], [30.29353981301889, 1.5288469525458854], [30.293522901015354, 1.528842145029589], [30.293498798868566, 1.5288366063223178], [30.29347369040694, 1.5288322411611086], [30.293446247984793, 1.5288286719171593], [30.293399483749507, 1.5288235761808426], [30.29336316865156, 1.5288204791588653], [30.29332939446329, 1.5288191241002516], [30.29330481622755, 1.5288194462521667], [30.293280634917323, 1.528821188636309], [30.293264522410603, 1.5288233172060604], [30.293241401711946, 1.528827852496638], [30.293226192019773, 1.5288318592179384], [30.293205491950783, 1.5288388122940786], [30.29319236002643, 1.5288443859746883], [30.29317986729913, 1.528850809954031], [30.29316677149356, 1.5288590902918195], [30.293151662146215, 1.5288711609444188], [30.293136890300904, 1.52888620884606], [30.293123671277737, 1.5289025239126521], [30.293096606967783, 1.528939029261801], [30.29308100294219, 1.5289574577879386], [30.293063532301524, 1.5289749350480768], [30.293042195323096, 1.5289935397473409], [30.293019544815763, 1.5290112508162312], [30.292997075348584, 1.529027094145583], [30.29296594040083, 1.5290464653995568], [30.292941176004764, 1.529059905559445], [30.292926278560248, 1.5290669780551642], [30.29290582469109, 1.5290752427182788], [30.292888865445374, 1.5290809064227397], [30.29285888345989, 1.5290895737889816], [30.29284847898898, 1.5290934953300115], [30.292844181913598, 1.5290958205412282], [30.292838450314115, 1.5291006481108247], [30.2928361473201, 1.5291039618015676], [30.292834238362705, 1.5291102826353038], [30.29283470178318, 1.5291159639438723], [30.29283614773716, 1.5291201020599623], [30.292840648503727, 1.529127208223517], [30.292847538968868, 1.5291341845763124], [30.292852568974677, 1.529138165479607], [30.29286943299537, 1.5291482894669437], [30.292882226606622, 1.5291539945665649], [30.2928939301032, 1.5291582369830667], [30.292919810680107, 1.5291655790530128], [30.293104549217034, 1.5292043975338847], [30.29327232350429, 1.5292471626618682], [30.293373482897604, 1.5292710885077858], [30.293437432024813, 1.5292846575801333], [30.293581725403225, 1.5293127464575311], [30.293643464410476, 1.5293264690640103], [30.293686370584886, 1.5293375641696791], [30.29372925754778, 1.5293510920395592], [30.29376532733191, 1.5293650802801826], [30.29380269147687, 1.5293823605745522], [30.293824132987474, 1.529393563985493], [30.293852745757658, 1.5294098210138822], [30.29390852679132, 1.52944492236888], [30.294041182341743, 1.529534625023799], [30.294144338276173, 1.5295999081182439], [30.294207431936062, 1.5296426388571647], [30.294250961791604, 1.5296748626169014], [30.294283277112832, 1.5297010335431487], [30.294315714015543, 1.5297305049770618], [30.294340874968288, 1.529756771652049], [30.294354870227693, 1.5297731230935232], [30.294368065716053, 1.529789924471624], [30.29438179961759, 1.5298091764941426], [30.294394291827615, 1.5298289673596281], [30.2944038534039, 1.5298462973141405], [30.294412337799756, 1.5298640226302895], [30.294423412335938, 1.5298929292371881], [30.294431719141404, 1.5299240952226414], [30.294435313981126, 1.5299432720169335], [30.294438944093113, 1.5299708434279897], [30.294441071048198, 1.5300119658849967], [30.294440630607983, 1.5300388064473993], [30.29443907691424, 1.5300647319442437], [30.2944349572259, 1.5300988933160034], [30.294427813265248, 1.5301336554295708], [30.29441771217031, 1.530167754078174], [30.294410656168527, 1.530186794441868], [30.294402712440636, 1.5302055300309896], [30.294384326145646, 1.5302420807680843], [30.29436189197431, 1.5302791523225416], [30.294333995316848, 1.5303191178494862], [30.294306177603385, 1.530354848685033], [30.294276876267137, 1.530389266349479], [30.294246195791857, 1.530422117936413], [30.29421395268266, 1.5304529314756254], [30.294183655432352, 1.530478077602723], [30.294134217478106, 1.5305140728607443], [30.294077461448786, 1.5305518102089308], [30.294042309331665, 1.5305722282720955], [30.294009373206432, 1.5305885399762964], [30.29397738854741, 1.5306023062312513], [30.293943031153724, 1.5306155615848795], [30.293903573888656, 1.5306289857772173], [30.293875061628313, 1.5306371154787084], [30.293848632630148, 1.5306431494104833], [30.293814646936568, 1.5306485854241862], [30.293787776117554, 1.5306510509439968], [30.293754495039, 1.5306517198748437], [30.293728622212594, 1.53065034408477], [30.29370290152593, 1.530647234267358], [30.293676462100162, 1.5306422573743326], [30.29364891345184, 1.53063530175324], [30.293623123352756, 1.5306273967596413], [30.29359770367617, 1.5306184159176877], [30.29356953083174, 1.5306072445981291], [30.29351532490824, 1.5305842946740602], [30.293485768432024, 1.5305729950772955], [30.29345915433638, 1.5305648115979575], [30.29343237381156, 1.530559016413454], [30.29341535800865, 1.5305567752780398], [30.293399226205125, 1.5305556612888997], [30.293366916624468, 1.5305557214462184], [30.29324703840551, 1.5305606551843163], [30.293221641019752, 1.53056254329208], [30.29320280087933, 1.5305650208184522], [30.293188151114744, 1.530567913050724], [30.293173760589557, 1.5305717427596415], [30.293149990596913, 1.5305805933094219], [30.293124706511335, 1.530593809564963], [30.29310177002179, 1.5306089627428008], [30.29302767418915, 1.5306658122388213], [30.292967667061742, 1.5307096056619718], [30.292945914933508, 1.5307269690064313], [30.292931254850828, 1.5307409452232297], [30.292922185103034, 1.5307517574277485], [30.29291505356032, 1.5307630031654773], [30.292911898497852, 1.5307697941495488], [30.292908453302495, 1.5307816599995077], [30.29290763535249, 1.5307937316201454], [30.292908433734336, 1.5308008276613907], [30.2929118614953, 1.5308128685308262], [30.292915014566653, 1.5308198265866844], [30.292923599300625, 1.530833421163216], [30.29293309046638, 1.5308445786828733], [30.292950038348735, 1.5308601485565918], [30.292962340538537, 1.5308696115791067], [30.292977482810684, 1.530879984633202], [30.292992959298964, 1.530889510432407], [30.293015904039642, 1.5309021282803341], [30.2930476636234, 1.5309174314121028], [30.29313559582744, 1.5309562960873855], [30.293174927991753, 1.530975997262913], [30.29321068322566, 1.5309951878142452], [30.293237440096295, 1.5310105261591085], [30.293265855371374, 1.5310281502880863], [30.293296663655887, 1.5310487334955527], [30.29333051630107, 1.5310727429242486], [30.29336450221542, 1.5310986069365542], [30.293392538046735, 1.531121635676391], [30.293462803572755, 1.5311831908558826], [30.293498307654293, 1.5312164726489454], [30.293522515251105, 1.5312424634066275], [30.29354286643926, 1.5312673892102], [30.29356055077635, 1.5312914675585354], [30.2935816935667, 1.5313231676791108], [30.293601691130814, 1.5313558179516535], [30.293621929409568, 1.5313912863002195], [30.293645220957018, 1.5314352452763402], [30.293663504432867, 1.5314720549591911], [30.293694881885653, 1.5315385519132494], [30.293739256216128, 1.5316291059024902], [30.293782429632415, 1.5317213338497202], [30.2937993495498, 1.5317620494503879], [30.29381333035535, 1.531802767640619], [30.293830424251656, 1.53186369133658], [30.293840989395136, 1.5319113393564783], [30.293846507377555, 1.5319443498841965], [30.293857624996452, 1.5320254368035946], [30.293870565238937, 1.532105319588813], [30.29387600011056, 1.532150878034163], [30.29387910687971, 1.532193275953921], [30.293880514916815, 1.5322354674745828], [30.293879979092125, 1.5322802962614936], [30.2938786748301, 1.5322999087375397], [30.293875668731058, 1.5323239327713798], [30.293870957144755, 1.532347409698147], [30.293865845162237, 1.5323657973210443], [30.293859627467082, 1.5323837018594608], [30.293852371449, 1.532401090865527], [30.293843695404444, 1.5324187265853446], [30.293829925873595, 1.532442167587991], [30.293817568956694, 1.5324598239283709], [30.29380110287138, 1.5324796114124717], [30.29378828692419, 1.5324923898421088], [30.293771986784485, 1.5325058877109055], [30.29375437689456, 1.5325176280033856], [30.293738372160803, 1.532526146802178], [30.29372449072734, 1.5325321541794181], [30.293707069243844, 1.5325383115870397], [30.29368130955649, 1.532545503978777], [30.29365771866273, 1.5325504272012154], [30.293625198203575, 1.5325553435804948], [30.29359182554525, 1.5325588391457037], [30.29348125692695, 1.5325663763848636], [30.293357066590062, 1.5325719117361714], [30.293247369722287, 1.53257961906351], [30.293212031517907, 1.5325801479506254], [30.293169302135066, 1.5325784199044898], [30.29307680614188, 1.532569021998308], [30.293042970648273, 1.5325663934250844], [30.293010462640297, 1.5325657004801498], [30.292988571080254, 1.532566785087368], [30.29296759711802, 1.5325694134949364], [30.292954581102478, 1.5325720438965245], [30.29294227444547, 1.5325754288947881], [30.29293065454858, 1.5325796868469759], [30.29292082459632, 1.5325844531545734], [30.29291227414749, 1.5325900344293597], [30.292905187160493, 1.53259653302465], [30.292898619708772, 1.5326062070138395], [30.29289550351262, 1.5326149301740428], [30.292894385231072, 1.5326215918036523], [30.29289436721043, 1.5326337882490721], [30.292895365229654, 1.5326413644154024], [30.29290084730368, 1.5326621892532368], [30.29290983057531, 1.5326844816537226], [30.29292156299497, 1.532707873753653], [30.292935374093318, 1.532732106238777], [30.292996518110616, 1.5328277206618064], [30.29301790871662, 1.5328629817324302], [30.293042405684233, 1.5329066349940974], [30.293065817519228, 1.532951293608904], [30.293089557093317, 1.53299954488965], [30.293106428514875, 1.5330373622302387], [30.293123376810534, 1.5330804609510345], [30.29314562776715, 1.5331435203412398], [30.293160781815327, 1.5331909609146797], [30.293172208116406, 1.5332307070743796], [30.29319726425286, 1.5333310119334993], [30.29320690660354, 1.5333661929919256], [30.29328284580321, 1.5336175436908064], [30.29329547398066, 1.5336641306667627], [30.293301536874385, 1.5336915171903913], [30.293305949846133, 1.5337155877080226], [30.293317001487054, 1.5337933353160655], [30.293320594747897, 1.5338322816673775], [30.29332101625495, 1.5338505696833697], [30.29332018885886, 1.53386870157438], [30.293316523789954, 1.5338940025990548], [30.293310063947573, 1.5339187795270768], [30.293299925733322, 1.533945872497641], [30.29328719511825, 1.5339721822640222], [30.293273767778935, 1.5339948311162717], [30.293256449142792, 1.5340191631420936], [30.293237364335234, 1.5340426470447708], [30.29321485947972, 1.5340679683513543], [30.293188114664673, 1.5340958806149372], [30.293165864862605, 1.5341168969691321], [30.293142486267943, 1.5341365039041441], [30.293124351738278, 1.5341498249855186], [30.293094611252517, 1.5341684450963513], [30.293022275532667, 1.5342085987651062], [30.292945062685416, 1.5342560210775145], [30.29286710213382, 1.5343024763625384], [30.292844931166712, 1.5343172156359701], [30.292829071525563, 1.5343288785887472], [30.29280293312835, 1.534350856039496], [30.292779326847437, 1.53437442362981], [30.29276058646212, 1.5343967954853828], [30.292746000656127, 1.5344173462367725], [30.292732478488663, 1.5344411291052744], [30.292724993195392, 1.53445943053323], [30.292719513369818, 1.534481089990793], [30.2927175604389, 1.5345016360537425], [30.292718721394667, 1.5345231575728628], [30.29272130632793, 1.5345377241492713], [30.292727859121705, 1.53455969806876], [30.292735962277632, 1.5345784694095774], [30.292744353936026, 1.5345941883867664], [30.292763977714444, 1.5346255224202587], [30.29278693575428, 1.5346589672514337], [30.292809400430365, 1.5346898512450164], [30.29283233056405, 1.5347190693918271], [30.292868663852044, 1.534760571579105], [30.29289860040224, 1.5347909590213138], [30.292929582181348, 1.5348185146663018], [30.292984210137956, 1.534860743261783], [30.293005175893363, 1.534878216103572], [30.293026166976347, 1.5348983973967585], [30.293038547318503, 1.534912114322736], [30.293047908426434, 1.5349238518907673], [30.293056103201668, 1.5349354686826417], [30.293064187281544, 1.534948705685554], [30.29307039979904, 1.5349613546990923], [30.293073508736622, 1.5349698318465006], [30.293077359225556, 1.5349870189922856], [30.293080538361913, 1.535017491626736], [30.293084659479188, 1.5350394073284097], [30.29309046043088, 1.5350572792617334], [30.29309929186696, 1.5350753267629742], [30.293103863179798, 1.5350827303599488], [30.293114517448164, 1.5350972746938751], [30.293131802370457, 1.535116164384348], [30.293146390502763, 1.5351294539613827], [30.29315751057335, 1.535138491680732], [30.293186516959267, 1.535159490209548], [30.293243574048542, 1.5351959598634812], [30.293263226367813, 1.5352074755882812], [30.293290643230975, 1.5352221235291927], [30.293315840024302, 1.5352341135400611], [30.293349181348386, 1.5352484129715587], [30.2933786191163, 1.5352598643551998], [30.293405297471192, 1.535269095420426], [30.293435679297335, 1.5352781902276273], [30.293459825691098, 1.5352842803835005], [30.29356287357073, 1.5353047696152569], [30.293606451215172, 1.5353153786900386], [30.293652138946157, 1.5353297028966015], [30.293742593114956, 1.5353618908734583], [30.29378628375984, 1.535374762983354], [30.29381166168662, 1.5353805483507352], [30.293836747537537, 1.5353850898400676], [30.293934381446086, 1.5353991910674123], [30.29394791677683, 1.5354020739850271], [30.293960698915964, 1.5354062093893368], [30.293972599930935, 1.5354119296828281], [30.293979101622195, 1.53541600376367], [30.293993394588103, 1.5354276617738303], [30.294002384108218, 1.5354371242375022], [30.294010479225722, 1.535447305818733], [30.29403432833723, 1.5354841289890464], [30.294046352667053, 1.535500322543852], [30.294055042397737, 1.5355096752771529], [30.294068407338845, 1.5355216547305404], [30.29408002162389, 1.535530446372425], [30.294090155368806, 1.535536905457332], [30.29410221953014, 1.535542855502481], [30.294108262915216, 1.5355450538000837], [30.29411847090618, 1.5355474598369943], [30.29412835248382, 1.5355480779179411], [30.29413768742081, 1.5355470830820888], [30.29414627056339, 1.5355448031149594], [30.29417348388133, 1.5355335468368099], [30.294181172683768, 1.535531936282923], [30.29418646432338, 1.5355318332360217]]]}}]}