{"type": "FeatureCollection", "name": "Points_sites.shp", "features": [{"type": "Feature", "properties": {"id": null, "Name": "Site 3"}, "geometry": {"type": "Point", "coordinates": [30.291907435812906, 1.539555082444165]}}, {"type": "Feature", "properties": {"id": 0, "Name": "Site 2"}, "geometry": {"type": "Point", "coordinates": [30.295238127036885, 1.5348303076032674]}}, {"type": "Feature", "properties": {"id": 0, "Name": "Site 1"}, "geometry": {"type": "Point", "coordinates": [30.294526967617326, 1.5322896500190535]}}]}